{
  "type": "FeatureCollection",
  "name": "buildings",
  "crs": {
    "type": "name",
    "properties": {
      "name": "urn:ogc:def:crs:OGC:1.3:CRS84"
    }
  },
  "metadata": {
    "fixture": true,
    "region": "Manhattan, New York City",
    "coordinate_reference_system": "OGC:CRS84",
    "source": "GeoHarness deterministic Manhattan-scale fixture",
    "license": "CC0-1.0",
    "generated_on": "2026-08-27"
  },
  "features": [
    {
      "type": "Feature",
      "id": "b01",
      "properties": {
        "building_id": "b01",
        "name": "Demo Building 01",
        "use": "residential",
        "height_m": 18,
        "units": 12
      },
      "geometry": {
        "type": "Polygon",
        "coordinates": [
          [
            [
              -73.9985882,
              40.7024324
            ],
            [
              -73.9978824,
              40.7024324
            ],
            [
              -73.9978824,
              40.702973
            ],
            [
              -73.9985882,
              40.702973
            ],
            [
              -73.9985882,
              40.7024324
            ]
          ]
        ]
      }
    },
    {
      "type": "Feature",
      "id": "b02",
      "properties": {
        "building_id": "b02",
        "name": "Demo Building 02",
        "use": "mixed_use",
        "height_m": 28,
        "units": 20
      },
      "geometry": {
        "type": "Polygon",
        "coordinates": [
          [
            [
              -73.9956471,
              40.706036
            ],
            [
              -73.9949412,
              40.706036
            ],
            [
              -73.9949412,
              40.7065766
            ],
            [
              -73.9956471,
              40.7065766
            ],
            [
              -73.9956471,
              40.706036
            ]
          ]
        ]
      }
    },
    {
      "type": "Feature",
      "id": "b03",
      "properties": {
        "building_id": "b03",
        "name": "Demo Building 03",
        "use": "commercial",
        "height_m": 12,
        "units": 8
      },
      "geometry": {
        "type": "Polygon",
        "coordinates": [
          [
            [
              -73.9927059,
              40.7096396
            ],
            [
              -73.992,
              40.7096396
            ],
            [
              -73.992,
              40.7101802
            ],
            [
              -73.9927059,
              40.7101802
            ],
            [
              -73.9927059,
              40.7096396
            ]
          ]
        ]
      }
    },
    {
      "type": "Feature",
      "id": "b04",
      "properties": {
        "building_id": "b04",
        "name": "Demo Building 04",
        "use": "residential",
        "height_m": 35,
        "units": 24
      },
      "geometry": {
        "type": "Polygon",
        "coordinates": [
          [
            [
              -73.9909412,
              40.7132432
            ],
            [
              -73.9902353,
              40.7132432
            ],
            [
              -73.9902353,
              40.7137838
            ],
            [
              -73.9909412,
              40.7137838
            ],
            [
              -73.9909412,
              40.7132432
            ]
          ]
        ]
      }
    },
    {
      "type": "Feature",
      "id": "b05",
      "properties": {
        "building_id": "b05",
        "name": "Demo Building 05",
        "use": "office",
        "height_m": 42,
        "units": 16
      },
      "geometry": {
        "type": "Polygon",
        "coordinates": [
          [
            [
              -73.9885882,
              40.7168468
            ],
            [
              -73.9878824,
              40.7168468
            ],
            [
              -73.9878824,
              40.7173874
            ],
            [
              -73.9885882,
              40.7173874
            ],
            [
              -73.9885882,
              40.7168468
            ]
          ]
        ]
      }
    },
    {
      "type": "Feature",
      "id": "b06",
      "properties": {
        "building_id": "b06",
        "name": "Demo Building 06",
        "use": "residential",
        "height_m": 22,
        "units": 18
      },
      "geometry": {
        "type": "Polygon",
        "coordinates": [
          [
            [
              -73.9862353,
              40.7204505
            ],
            [
              -73.9855294,
              40.7204505
            ],
            [
              -73.9855294,
              40.720991
            ],
            [
              -73.9862353,
              40.720991
            ],
            [
              -73.9862353,
              40.7204505
            ]
          ]
        ]
      }
    },
    {
      "type": "Feature",
      "id": "b07",
      "properties": {
        "building_id": "b07",
        "name": "Demo Building 07",
        "use": "institutional",
        "height_m": null,
        "units": 6
      },
      "geometry": {
        "type": "Polygon",
        "coordinates": [
          [
            [
              -73.9815294,
              40.7042342
            ],
            [
              -73.9808235,
              40.7042342
            ],
            [
              -73.9808235,
              40.7047748
            ],
            [
              -73.9815294,
              40.7047748
            ],
            [
              -73.9815294,
              40.7042342
            ]
          ]
        ]
      }
    },
    {
      "type": "Feature",
      "id": "b08",
      "properties": {
        "building_id": "b08",
        "name": "Demo Building 08",
        "use": "residential",
        "height_m": 16,
        "units": 10
      },
      "geometry": {
        "type": "Polygon",
        "coordinates": [
          [
            [
              -73.9791765,
              40.7078378
            ],
            [
              -73.9784706,
              40.7078378
            ],
            [
              -73.9784706,
              40.7083784
            ],
            [
              -73.9791765,
              40.7083784
            ],
            [
              -73.9791765,
              40.7078378
            ]
          ]
        ]
      }
    },
    {
      "type": "Feature",
      "id": "b09",
      "properties": {
        "building_id": "b09",
        "name": "Demo Building 09",
        "use": "commercial",
        "height_m": 31,
        "units": 14
      },
      "geometry": {
        "type": "Polygon",
        "coordinates": [
          [
            [
              -73.9744706,
              40.7114414
            ],
            [
              -73.9737647,
              40.7114414
            ],
            [
              -73.9737647,
              40.711982
            ],
            [
              -73.9744706,
              40.711982
            ],
            [
              -73.9744706,
              40.7114414
            ]
          ]
        ]
      }
    },
    {
      "type": "Feature",
      "id": "b10",
      "properties": {
        "building_id": "b10",
        "name": "Demo Building 10",
        "use": "mixed_use",
        "height_m": 26,
        "units": 22
      },
      "geometry": {
        "type": "Polygon",
        "coordinates": [
          [
            [
              -73.9703529,
              40.715045
            ],
            [
              -73.9696471,
              40.715045
            ],
            [
              -73.9696471,
              40.7155856
            ],
            [
              -73.9703529,
              40.7155856
            ],
            [
              -73.9703529,
              40.715045
            ]
          ]
        ]
      }
    },
    {
      "type": "Feature",
      "id": "b11",
      "properties": {
        "building_id": "b11",
        "name": "Demo Building 11",
        "use": "residential",
        "height_m": 14,
        "units": 9
      },
      "geometry": {
        "type": "Polygon",
        "coordinates": [
          [
            [
              -73.9685882,
              40.7186486
            ],
            [
              -73.9678824,
              40.7186486
            ],
            [
              -73.9678824,
              40.7191892
            ],
            [
              -73.9685882,
              40.7191892
            ],
            [
              -73.9685882,
              40.7186486
            ]
          ]
        ]
      }
    },
    {
      "type": "Feature",
      "id": "b12",
      "properties": {
        "building_id": "b12",
        "name": "Demo Building 12",
        "use": "residential",
        "height_m": 20,
        "units": 11
      },
      "geometry": {
        "type": "Polygon",
        "coordinates": [
          [
            [
              -73.9668235,
              40.7222523
            ],
            [
              -73.9661176,
              40.7222523
            ],
            [
              -73.9661176,
              40.7227928
            ],
            [
              -73.9668235,
              40.7227928
            ],
            [
              -73.9668235,
              40.7222523
            ]
          ]
        ]
      }
    }
  ]
}
