{
  "type": "FeatureCollection",
  "name": "rivers",
  "crs": {
    "type": "name",
    "properties": {
      "name": "urn:ogc:def:crs:OGC:1.3:CRS84"
    }
  },
  "metadata": {
    "fixture": true,
    "region": "Manhattan, New York City",
    "coordinate_reference_system": "OGC:CRS84",
    "source": "GeoHarness deterministic Manhattan-scale fixture",
    "license": "CC0-1.0",
    "generated_on": "2026-08-27"
  },
  "features": [
    {
      "type": "Feature",
      "id": "river-hudson",
      "properties": {
        "river_id": "river-hudson",
        "name": "Hudson River"
      },
      "geometry": {
        "type": "Polygon",
        "coordinates": [
          [
            [
              -74.0011765,
              40.6990991
            ],
            [
              -74,
              40.6990991
            ],
            [
              -74,
              40.7279279
            ],
            [
              -74.0011765,
              40.7279279
            ],
            [
              -74.0011765,
              40.6990991
            ]
          ]
        ]
      }
    },
    {
      "type": "Feature",
      "id": "river-east",
      "properties": {
        "river_id": "river-east",
        "name": "East River"
      },
      "geometry": {
        "type": "Polygon",
        "coordinates": [
          [
            [
              -73.9647059,
              40.6990991
            ],
            [
              -73.9635294,
              40.6990991
            ],
            [
              -73.9635294,
              40.7279279
            ],
            [
              -73.9647059,
              40.7279279
            ],
            [
              -73.9647059,
              40.6990991
            ]
          ]
        ]
      }
    }
  ]
}
