{
  "type": "FeatureCollection",
  "features": [
    {
      "type": "Feature",
      "properties": {
        "river_id": "hudson-river",
        "name": "Hudson River"
      },
      "geometry": {
        "type": "MultiPolygon",
        "coordinates": [
          [
            [
              [
                -74.01305359027586,
                40.70000084413295
              ],
              [
                -74.01307843485952,
                40.70010324258443
              ],
              [
                -74.01309395831629,
                40.70022369324004
              ],
              [
                -74.01311153191459,
                40.700360290603314
              ],
              [
                -74.01311155389506,
                40.70047205304479
              ],
              [
                -74.01310747847371,
                40.700507452180815
              ],
              [
                -74.0130020533556,
                40.70051602846561
              ],
              [
                -74.01290881793956,
                40.70052361169369
              ],
              [
                -74.01290474249372,
                40.70049691216296
              ],
              [
                -74.01288188403385,
                40.700441659886295
              ],
              [
                -74.01286637756563,
                40.700407513371886
              ],
              [
                -74.01283454933409,
                40.700352874734655
              ],
              [
                -74.01279619139252,
                40.7003000998848
              ],
              [
                -74.01273499158562,
                40.70021877270113
              ],
              [
                -74.01268072728449,
                40.700146755381624
              ],
              [
                -74.0126480885809,
                40.70011508828317
              ],
              [
                -74.01261382087367,
                40.70010826581125
              ],
              [
                -74.01254202780166,
                40.70013497414846
              ],
              [
                -74.01251511280124,
                40.70015049211098
              ],
              [
                -74.01251593564191,
                40.700184648480324
              ],
              [
                -74.01252899955233,
                40.700252320357144
              ],
              [
                -74.01255471870938,
                40.70035973065794
              ],
              [
                -74.01259064684221,
                40.70051185050827
              ],
              [
                -74.01259392327508,
                40.70057083347261
              ],
              [
                -74.01239160032284,
                40.700620528094184
              ],
              [
                -74.01236222440261,
                40.70057582996221
              ],
              [
                -74.0123185597424,
                40.70048828709024
              ],
              [
                -74.012254902849,
                40.700364734341655
              ],
              [
                -74.01223694549938,
                40.700321277844466
              ],
              [
                -74.01217247960996,
                40.700233115597854
              ],
              [
                -74.01215779158518,
                40.70021137864831
              ],
              [
                -74.0121275950614,
                40.7001430865069
              ],
              [
                -74.01208842091692,
                40.70008658419219
              ],
              [
                -74.01204027930206,
                40.700048091645726
              ],
              [
                -74.01196196116918,
                40.70003754559562
              ],
              [
                -74.01193096316577,
                40.70005121015706
              ],
              [
                -74.01185672556994,
                40.70010710340858
              ],
              [
                -74.01190488098494,
                40.70022693000216
              ],
              [
                -74.01197670642495,
                40.70037842429938
              ],
              [
                -74.01203856797012,
                40.700528956812484
              ],
              [
                -74.01206932171665,
                40.700599733344255
              ],
              [
                -74.01208509377953,
                40.70066451480406
              ],
              [
                -74.01208668214693,
                40.70068130873935
              ],
              [
                -74.01199159781125,
                40.700704830964014
              ],
              [
                -74.01185378549589,
                40.70073892145032
              ],
              [
                -74.01184827026117,
                40.700729925806115
              ],
              [
                -74.01183407601519,
                40.700686134476314
              ],
              [
                -74.0118261923343,
                40.700666342782185
              ],
              [
                -74.01177730827737,
                40.70057097437511
              ],
              [
                -74.01175129264934,
                40.700530787586466
              ],
              [
                -74.0117260583568,
                40.700478604422045
              ],
              [
                -74.01170321011992,
                40.700481002386965
              ],
              [
                -74.01167798034295,
                40.700461815207625
              ],
              [
                -74.01163147918649,
                40.70045821824831
              ],
              [
                -74.01161413587113,
                40.70047261846275
              ],
              [
                -74.01161019835878,
                40.70049300642165
              ],
              [
                -74.01163149614044,
                40.70055539174753
              ],
              [
                -74.01166539833068,
                40.70063756059044
              ],
              [
                -74.01168275397707,
                40.70069334506224
              ],
              [
                -74.01170009248338,
                40.700721538636074
              ],
              [
                -74.01172926817476,
                40.70077011805985
              ],
              [
                -74.01150291143712,
                40.70081505897437
              ],
              [
                -74.01146947437395,
                40.70074892825823
              ],
              [
                -74.01143269912247,
                40.700674541116435
              ],
              [
                -74.01139508123386,
                40.70059060767393
              ],
              [
                -74.0113817187564,
                40.70057025711801
              ],
              [
                -74.01136082267432,
                40.70056581099943
              ],
              [
                -74.0113340941042,
                40.70056835368245
              ],
              [
                -74.01130986410949,
                40.700579801191246
              ],
              [
                -74.01129816432253,
                40.70059888452948
              ],
              [
                -74.0113031892116,
                40.700647844036496
              ],
              [
                -74.01135836291354,
                40.700851958636505
              ],
              [
                -74.01115033556839,
                40.700898400101124
              ],
              [
                -74.01113362222922,
                40.70086787440568
              ],
              [
                -74.01110436404355,
                40.700810649429535
              ],
              [
                -74.01107427475966,
                40.70074833739373
              ],
              [
                -74.01104377249544,
                40.7006828452198
              ],
              [
                -74.01100364429975,
                40.700581109944274
              ],
              [
                -74.01093093205078,
                40.70041515233457
              ],
              [
                -74.01085157384671,
                40.700238511085075
              ],
              [
                -74.01081530667369,
                40.70020044410136
              ],
              [
                -74.01079959311008,
                40.700207213007154
              ],
              [
                -74.01078537980491,
                40.70023251447092
              ],
              [
                -74.0109036642329,
                40.700451381512565
              ],
              [
                -74.01088462665342,
                40.70046142740972
              ],
              [
                -74.01090496934044,
                40.700491783764114
              ],
              [
                -74.01091918086524,
                40.70048646309209
              ],
              [
                -74.01094712848689,
                40.70053774303593
              ],
              [
                -74.01092557334937,
                40.700555831994045
              ],
              [
                -74.01092482717033,
                40.70056679303653
              ],
              [
                -74.01093617683645,
                40.700575841947206
              ],
              [
                -74.01095827294417,
                40.70057459160022
              ],
              [
                -74.01098841773411,
                40.70063424450271
              ],
              [
                -74.01096997178928,
                40.70064553608976
              ],
              [
                -74.01099134410617,
                40.700673352282195
              ],
              [
                -74.01100361903022,
                40.70066806679797
              ],
              [
                -74.0110085466105,
                40.70068355723451
              ],
              [
                -74.01099272755786,
                40.700690593047234
              ],
              [
                -74.01100668082337,
                40.70071138770618
              ],
              [
                -74.01101999687313,
                40.70071239494593
              ],
              [
                -74.01102945843246,
                40.7007311709939
              ],
              [
                -74.01101538388575,
                40.70074112429666
              ],
              [
                -74.01103748928746,
                40.700757131248295
              ],
              [
                -74.01105943295772,
                40.7008026214952
              ],
              [
                -74.01105584312833,
                40.70081153127301
              ],
              [
                -74.01107872437127,
                40.70085194903657
              ],
              [
                -74.01109337389371,
                40.70085125657577
              ],
              [
                -74.01109386310776,
                40.70086641037122
              ],
              [
                -74.01110886351545,
                40.7009014201039
              ],
              [
                -74.01106708568963,
                40.70091494089502
              ],
              [
                -74.01107837974551,
                40.70095712031528
              ],
              [
                -74.01112868539609,
                40.70106489745063
              ],
              [
                -74.0112097577877,
                40.70104458327395
              ],
              [
                -74.01128983905525,
                40.70124998224445
              ],
              [
                -74.01110775373041,
                40.70127576447384
              ],
              [
                -74.01118088303541,
                40.70145139225388
              ],
              [
                -74.01105603841502,
                40.70145418141225
              ],
              [
                -74.00958483017605,
                40.701837385563415
              ],
              [
                -74.00862036163869,
                40.700552163713446
              ],
              [
                -74.008349275591,
                40.7006693483884
              ],
              [
                -74.00853611510774,
                40.700919695745235
              ],
              [
                -74.0075913620422,
                40.7013280810483
              ],
              [
                -74.00775549150644,
                40.70154800217456
              ],
              [
                -74.00869964313567,
                40.701139867542395
              ],
              [
                -74.00929072600606,
                40.701930071319545
              ],
              [
                -74.00914202195378,
                40.70197284940286
              ],
              [
                -74.00911037361746,
                40.70198387051121
              ],
              [
                -74.00836148391231,
                40.70244453901655
              ],
              [
                -74.00795594887994,
                40.70269252994472
              ],
              [
                -74.00769798694176,
                40.70284927854698
              ],
              [
                -74.00764555161301,
                40.702928174276515
              ],
              [
                -74.00760498179518,
                40.702993141156
              ],
              [
                -74.00752714979264,
                40.70311498091373
              ],
              [
                -74.00751905283795,
                40.703121819734726
              ],
              [
                -74.00722046663678,
                40.703301977806014
              ],
              [
                -74.00699466002457,
                40.70344118856679
              ],
              [
                -74.00678502191047,
                40.70356812740289
              ],
              [
                -74.00675541584032,
                40.703541489477004
              ],
              [
                -74.00655720878507,
                40.703363148333466
              ],
              [
                -74.00654880812654,
                40.70336761508608
              ],
              [
                -74.00649425191108,
                40.70330054817197
              ],
              [
                -74.00646028831753,
                40.703271208034245
              ],
              [
                -74.00636372730409,
                40.703187792252685
              ],
              [
                -74.00623870508532,
                40.70307978930175
              ],
              [
                -74.00608976093835,
                40.70295112049134
              ],
              [
                -74.00598430339498,
                40.702860018543866
              ],
              [
                -74.00567522249854,
                40.70258407219774
              ],
              [
                -74.00555771998816,
                40.70266439465221
              ],
              [
                -74.00553546138177,
                40.702645521107016
              ],
              [
                -74.00558909594902,
                40.70261273059701
              ],
              [
                -74.00558509547804,
                40.70260405020257
              ],
              [
                -74.00559194611431,
                40.702598835921336
              ],
              [
                -74.00559022977765,
                40.70258581428404
              ],
              [
                -74.00559935100478,
                40.70258016783945
              ],
              [
                -74.00559479485835,
                40.70256802032967
              ],
              [
                -74.00560905264517,
                40.70255281855389
              ],
              [
                -74.00560163196413,
                40.702538059770085
              ],
              [
                -74.00561361797627,
                40.70253024203252
              ],
              [
                -74.00550166067457,
                40.702430867797204
              ],
              [
                -74.00549427805099,
                40.70243138145317
              ],
              [
                -74.00530412596079,
                40.702559865633226
              ],
              [
                -74.00542728826248,
                40.70266543619422
              ],
              [
                -74.00543599763355,
                40.70265955541154
              ],
              [
                -74.00547130861277,
                40.70268982908367
              ],
              [
                -74.00550531272071,
                40.70266684658575
              ],
              [
                -74.00552682615239,
                40.702685287617314
              ],
              [
                -74.0054838408244,
                40.70271432213423
              ],
              [
                -74.00555843304463,
                40.702781256890056
              ],
              [
                -74.00588747266437,
                40.70307651522399
              ],
              [
                -74.00589941745793,
                40.70308727019211
              ],
              [
                -74.0059114573594,
                40.703098111430585
              ],
              [
                -74.00630030777441,
                40.70344823498847
              ],
              [
                -74.00631484519425,
                40.70346132459716
              ],
              [
                -74.006320807539,
                40.703466761029055
              ],
              [
                -74.0065959191387,
                40.70368590194944
              ],
              [
                -74.00643259271952,
                40.70379118995182
              ],
              [
                -74.00634215560278,
                40.70384982260761
              ],
              [
                -74.00614106753552,
                40.70398097343562
              ],
              [
                -74.00602048621096,
                40.703874900102036
              ],
              [
                -74.0058912988893,
                40.70395985344216
              ],
              [
                -74.00566330640657,
                40.70410424447838
              ],
              [
                -74.00535027224755,
                40.70431007996171
              ],
              [
                -74.00526035829184,
                40.70437448841031
              ],
              [
                -74.00521160900404,
                40.704405532235526
              ],
              [
                -74.00518805067325,
                40.70442053569078
              ],
              [
                -74.00492037826479,
                40.70459100497351
              ],
              [
                -74.00484062824783,
                40.704639779526666
              ],
              [
                -74.00458622952465,
                40.70479945067947
              ],
              [
                -74.00434050782803,
                40.70496272930672
              ],
              [
                -74.00405666439265,
                40.70514736343911
              ],
              [
                -74.002866897815,
                40.70407522551174
              ],
              [
                -74.00262896407828,
                40.70422295278162
              ],
              [
                -74.00363086901315,
                40.705123551446675
              ],
              [
                -74.00355259950756,
                40.70516644083437
              ],
              [
                -74.00358390952114,
                40.70519264914818
              ],
              [
                -74.00366217837694,
                40.705149759739335
              ],
              [
                -74.00383327532259,
                40.70530324302657
              ],
              [
                -74.00364446183865,
                40.70542168413642
              ],
              [
                -74.00363187169326,
                40.70542980675192
              ],
              [
                -74.00358262337757,
                40.705461128831324
              ],
              [
                -74.00332307270787,
                40.70562859522025
              ],
              [
                -74.00238670740679,
                40.70479566367467
              ],
              [
                -74.00239832748953,
                40.70479492514104
              ],
              [
                -74.00248790148639,
                40.70473376058923
              ],
              [
                -74.00248839829258,
                40.7047267723514
              ],
              [
                -74.00243071075865,
                40.704677858004516
              ],
              [
                -74.00242059318668,
                40.70468033460394
              ],
              [
                -74.00233393075764,
                40.70474260690175
              ],
              [
                -74.00233344621164,
                40.704748135307184
              ],
              [
                -74.00218562331565,
                40.70460701887411
              ],
              [
                -74.002171849419,
                40.704606596463876
              ],
              [
                -74.00203201379027,
                40.70469295373028
              ],
              [
                -74.00197014837805,
                40.704731159202495
              ],
              [
                -74.00197070397947,
                40.704737867984804
              ],
              [
                -74.00238385458344,
                40.70510127025097
              ],
              [
                -74.0024157347692,
                40.705129311785285
              ],
              [
                -74.00236285311746,
                40.705158966692785
              ],
              [
                -74.00268512768794,
                40.705449248118846
              ],
              [
                -74.00256965059467,
                40.705523579523664
              ],
              [
                -74.0021581834855,
                40.70535711911871
              ],
              [
                -74.00212278686422,
                40.705379002672665
              ],
              [
                -74.00206282084558,
                40.705416077348126
              ],
              [
                -74.00206142563808,
                40.705417005138344
              ],
              [
                -74.00205517727977,
                40.70541134936683
              ],
              [
                -74.00145437418847,
                40.70487330343223
              ],
              [
                -74.00100010300393,
                40.70515759909723
              ],
              [
                -74.00100007577531,
                40.700001316849736
              ],
              [
                -74.01305359027586,
                40.70000084413295
              ]
            ]
          ],
          [
            [
              [
                -74.00140581495842,
                40.70617861288332
              ],
              [
                -74.00140666691954,
                40.706179388020814
              ],
              [
                -74.00140533024057,
                40.70618013520806
              ],
              [
                -74.00100010838919,
                40.70640700419995
              ],
              [
                -74.00100010581164,
                40.70579529106237
              ],
              [
                -74.00140581495842,
                40.70617861288332
              ]
            ]
          ],
          [
            [
              [
                -74.0011760207968,
                40.706627574359175
              ],
              [
                -74.00117643567687,
                40.706635058292946
              ],
              [
                -74.00116913341543,
                40.70663949766794
              ],
              [
                -74.00117521610984,
                40.706648745269305
              ],
              [
                -74.00116039022576,
                40.70666372083448
              ],
              [
                -74.00122701299958,
                40.70673486990667
              ],
              [
                -74.00123213691967,
                40.70674033642858
              ],
              [
                -74.00122367538822,
                40.70674526164791
              ],
              [
                -74.00113130577202,
                40.706799050684694
              ],
              [
                -74.0011868526283,
                40.706859825771936
              ],
              [
                -74.0010001106271,
                40.70696135818826
              ],
              [
                -74.00100010850706,
                40.70643563465332
              ],
              [
                -74.0011760207968,
                40.706627574359175
              ]
            ]
          ],
          [
            [
              [
                -74.01209463829593,
                40.7237070524813
              ],
              [
                -74.01223080840147,
                40.723056257072834
              ],
              [
                -74.01237071715393,
                40.72238758057911
              ],
              [
                -74.01249171031532,
                40.72177975782762
              ],
              [
                -74.01253875807262,
                40.72150317657655
              ],
              [
                -74.0131037691494,
                40.721554595471346
              ],
              [
                -74.0131123731524,
                40.72150992029584
              ],
              [
                -74.01325799654838,
                40.72152777302949
              ],
              [
                -74.01325565118515,
                40.72154385653947
              ],
              [
                -74.01356109093356,
                40.72157189376422
              ],
              [
                -74.0135612803112,
                40.72158061384525
              ],
              [
                -74.01361558335005,
                40.72158618255959
              ],
              [
                -74.01363523640495,
                40.721516561134564
              ],
              [
                -74.01326193939082,
                40.72147181193326
              ],
              [
                -74.01325380075872,
                40.72148992000137
              ],
              [
                -74.01311663311996,
                40.72147373453091
              ],
              [
                -74.01316066673286,
                40.721253963194776
              ],
              [
                -74.01562245781948,
                40.72154345367391
              ],
              [
                -74.01569471973286,
                40.72120642487544
              ],
              [
                -74.0128973027087,
                40.72086804597597
              ],
              [
                -74.01299980679079,
                40.720333090750216
              ],
              [
                -74.01351919132372,
                40.72039518655834
              ],
              [
                -74.01449720312957,
                40.72051372126333
              ],
              [
                -74.01630573342837,
                40.7207270200383
              ],
              [
                -74.01637848291482,
                40.72037660883105
              ],
              [
                -74.0157130096578,
                40.720303435742075
              ],
              [
                -74.01571378469997,
                40.72027067526838
              ],
              [
                -74.01557364347123,
                40.72025401550964
              ],
              [
                -74.01557364096601,
                40.720243294464986
              ],
              [
                -74.01426696671713,
                40.72008680714385
              ],
              [
                -74.0142646199906,
                40.72009514658378
              ],
              [
                -74.01399999964441,
                40.720067183661655
              ],
              [
                -74.01399452219557,
                40.72008564946671
              ],
              [
                -74.01341376512872,
                40.72001948201438
              ],
              [
                -74.01345505633182,
                40.71980170742638
              ],
              [
                -74.01290892764018,
                40.71973485170661
              ],
              [
                -74.01295749567798,
                40.71950016380323
              ],
              [
                -74.01295524308756,
                40.719489453397344
              ],
              [
                -74.01301172799539,
                40.719218969116426
              ],
              [
                -74.01303068126435,
                40.71913145581929
              ],
              [
                -74.01307237769215,
                40.718938619172846
              ],
              [
                -74.01306805492318,
                40.71892219382567
              ],
              [
                -74.01321322719193,
                40.71831571989594
              ],
              [
                -74.01470270021812,
                40.718516154884355
              ],
              [
                -74.0149451554934,
                40.71854353507732
              ],
              [
                -74.01497036257996,
                40.718535850864455
              ],
              [
                -74.01498333230722,
                40.718523791433164
              ],
              [
                -74.01498981339564,
                40.71850734732786
              ],
              [
                -74.01499619731617,
                40.718473001316845
              ],
              [
                -74.01500060682412,
                40.71844923605517
              ],
              [
                -74.01555087754508,
                40.71852193318396
              ],
              [
                -74.01567062060747,
                40.71853774823381
              ],
              [
                -74.01566883666857,
                40.71855448876333
              ],
              [
                -74.0159438298421,
                40.71858925504436
              ],
              [
                -74.01594695204274,
                40.71857554890644
              ],
              [
                -74.01662996338192,
                40.718665368450424
              ],
              [
                -74.01665946969615,
                40.718666021224834
              ],
              [
                -74.01669419095941,
                40.718648843354565
              ],
              [
                -74.01671018605823,
                40.718624176058164
              ],
              [
                -74.01686297377272,
                40.717786954287945
              ],
              [
                -74.01698274294627,
                40.717130643668334
              ],
              [
                -74.01712122293621,
                40.71637179307736
              ],
              [
                -74.01726421509521,
                40.715592682370115
              ],
              [
                -74.01732570958444,
                40.715254913255045
              ],
              [
                -74.01738223187856,
                40.71494446127945
              ],
              [
                -74.01738281387838,
                40.714941434315236
              ],
              [
                -74.01740871360487,
                40.71480679990559
              ],
              [
                -74.01753721790733,
                40.71409754224795
              ],
              [
                -74.01761833310015,
                40.7136543234331
              ],
              [
                -74.01770687258336,
                40.71316928246624
              ],
              [
                -74.01772496219296,
                40.71307018162288
              ],
              [
                -74.01772305335807,
                40.71306713097075
              ],
              [
                -74.01772056488205,
                40.71306433263438
              ],
              [
                -74.0177175530466,
                40.71306184990341
              ],
              [
                -74.0177140859701,
                40.713059738929566
              ],
              [
                -74.01771024206708,
                40.71305804745645
              ],
              [
                -74.01770610827474,
                40.713056813739975
              ],
              [
                -74.01770177808656,
                40.71305606568298
              ],
              [
                -74.01769698578217,
                40.71305582257523
              ],
              [
                -74.01769220508339,
                40.713056173899645
              ],
              [
                -74.01768756249247,
                40.71305711035977
              ],
              [
                -74.0176831808571,
                40.713058607175974
              ],
              [
                -74.0176791761199,
                40.71306062474091
              ],
              [
                -74.01767565425034,
                40.713063109667786
              ],
              [
                -74.01767270844078,
                40.71306599620279
              ],
              [
                -74.01767041664053,
                40.71306920796527
              ],
              [
                -74.01765509447189,
                40.7131610626672
              ],
              [
                -74.01757952508993,
                40.71359549038381
              ],
              [
                -74.01691068695467,
                40.71349632801045
              ],
              [
                -74.0165411468663,
                40.71344105274255
              ],
              [
                -74.01632006627581,
                40.713407982478444
              ],
              [
                -74.01639169485816,
                40.713099997950906
              ],
              [
                -74.01647724204145,
                40.71302949307415
              ],
              [
                -74.01654112171731,
                40.71295556481953
              ],
              [
                -74.01655548893456,
                40.71292909550457
              ],
              [
                -74.01659149520499,
                40.71286156321744
              ],
              [
                -74.01661840078305,
                40.71275615002984
              ],
              [
                -74.0166181765532,
                40.71264976356924
              ],
              [
                -74.01659227582778,
                40.71254817107701
              ],
              [
                -74.01654463812528,
                40.71245603793114
              ],
              [
                -74.01662424425291,
                40.712157318995494
              ],
              [
                -74.01780037888393,
                40.71234512415872
              ],
              [
                -74.01772148946115,
                40.712784144610644
              ],
              [
                -74.01772021563546,
                40.712844730933796
              ],
              [
                -74.01773183836701,
                40.712849312346826
              ],
              [
                -74.01775292705901,
                40.712848327556145
              ],
              [
                -74.01777014254505,
                40.712834574789326
              ],
              [
                -74.01787333422641,
                40.71231514395402
              ],
              [
                -74.01792224257028,
                40.712039242700904
              ],
              [
                -74.01797853231493,
                40.711756319208234
              ],
              [
                -74.01804609687574,
                40.711344501487254
              ],
              [
                -74.01811057789178,
                40.7110296282146
              ],
              [
                -74.01814480361773,
                40.71088865018915
              ],
              [
                -74.01826409180683,
                40.71040899662698
              ],
              [
                -74.01834136609787,
                40.71010647644118
              ],
              [
                -74.01846882134527,
                40.709589571008905
              ],
              [
                -74.01863142468964,
                40.708941100054346
              ],
              [
                -74.01874689830457,
                40.708480580253784
              ],
              [
                -74.01885500911968,
                40.708047534447594
              ],
              [
                -74.01885347760376,
                40.70802201228419
              ],
              [
                -74.01883395951488,
                40.70800221914029
              ],
              [
                -74.0188319588391,
                40.70799916678933
              ],
              [
                -74.01880063068425,
                40.70798062163758
              ],
              [
                -74.01864689079085,
                40.707946813547146
              ],
              [
                -74.01865557049648,
                40.707923948883426
              ],
              [
                -74.01819029259647,
                40.707821626110096
              ],
              [
                -74.01821699384479,
                40.70775130976844
              ],
              [
                -74.01821726389754,
                40.707742205969275
              ],
              [
                -74.01840649088628,
                40.70725787215867
              ],
              [
                -74.01853033752082,
                40.70695073241056
              ],
              [
                -74.0185351326967,
                40.70691832201426
              ],
              [
                -74.01854892759579,
                40.70690827067933
              ],
              [
                -74.01856452356978,
                40.70690644010943
              ],
              [
                -74.01856933191749,
                40.70692059520591
              ],
              [
                -74.01857172609171,
                40.70693839792405
              ],
              [
                -74.01857952850986,
                40.70694981480916
              ],
              [
                -74.01859153053346,
                40.70695939491857
              ],
              [
                -74.01860294181317,
                40.70697491797829
              ],
              [
                -74.01860474411275,
                40.70698906417743
              ],
              [
                -74.01861254498972,
                40.7069972851461
              ],
              [
                -74.01862814488062,
                40.70701097846509
              ],
              [
                -74.01864794474125,
                40.70701781957859
              ],
              [
                -74.01867853372204,
                40.70701873300261
              ],
              [
                -74.01869473190766,
                40.707010967670094
              ],
              [
                -74.01872292981705,
                40.70700685750059
              ],
              [
                -74.01874212416375,
                40.70700776337897
              ],
              [
                -74.0187757159848,
                40.70699725864664
              ],
              [
                -74.0187985148563,
                40.706982188376415
              ],
              [
                -74.01881110035019,
                40.706966211774294
              ],
              [
                -74.01884889814508,
                40.70697031235039
              ],
              [
                -74.01884829724433,
                40.70698309041036
              ],
              [
                -74.0188387043294,
                40.70699496965173
              ],
              [
                -74.01882011914353,
                40.707015972883156
              ],
              [
                -74.01879432757889,
                40.70703241116992
              ],
              [
                -74.01877393087639,
                40.70704428278774
              ],
              [
                -74.01874993323992,
                40.70704976248969
              ],
              [
                -74.01876194037419,
                40.707075785364474
              ],
              [
                -74.0187505462297,
                40.70707989331008
              ],
              [
                -74.01872115249107,
                40.70708172615
              ],
              [
                -74.01868695379925,
                40.70708400923774
              ],
              [
                -74.01864796262211,
                40.70708173803014
              ],
              [
                -74.01864437101173,
                40.707105475860615
              ],
              [
                -74.01863417023101,
                40.707103198808895
              ],
              [
                -74.01860717601127,
                40.70709544097533
              ],
              [
                -74.01857117399437,
                40.707079922388814
              ],
              [
                -74.01854718475342,
                40.70710777026439
              ],
              [
                -74.01858078403724,
                40.70712374810294
              ],
              [
                -74.01863058372714,
                40.707139715772044
              ],
              [
                -74.01865548075625,
                40.70714153912526
              ],
              [
                -74.01868966870477,
                40.707142443754144
              ],
              [
                -74.01872626987434,
                40.70714335568652
              ],
              [
                -74.0187610576787,
                40.7071378665252
              ],
              [
                -74.0187964493679,
                40.70712781984774
              ],
              [
                -74.01882943775034,
                40.70711548664025
              ],
              [
                -74.01885943006918,
                40.70710041568387
              ],
              [
                -74.01888462028894,
                40.707085805536956
              ],
              [
                -74.01890921570671,
                40.70706434245142
              ],
              [
                -74.01892660443805,
                40.70704425778598
              ],
              [
                -74.01893740557156,
                40.707034206896864
              ],
              [
                -74.01894579167337,
                40.70701777094153
              ],
              [
                -74.01895359463371,
                40.706996769465675
              ],
              [
                -74.01903338019704,
                40.707013190876204
              ],
              [
                -74.01906617140145,
                40.70701377062164
              ],
              [
                -74.01909155084711,
                40.70700447318465
              ],
              [
                -74.01910255488421,
                40.70700043764167
              ],
              [
                -74.01912275963412,
                40.706975814337596
              ],
              [
                -74.0192224228399,
                40.70657308872623
              ],
              [
                -74.01934254624474,
                40.706093672527274
              ],
              [
                -74.01934155704555,
                40.706070538706776
              ],
              [
                -74.01892572382414,
                40.704773762570454
              ],
              [
                -74.01888747947997,
                40.704729142804425
              ],
              [
                -74.01886289045426,
                40.704719607170915
              ],
              [
                -74.01811302905885,
                40.704553602333924
              ],
              [
                -74.01806509374255,
                40.704635825991765
              ],
              [
                -74.01805392410763,
                40.70462950493472
              ],
              [
                -74.0180429299157,
                40.70462803711048
              ],
              [
                -74.01802418707244,
                40.70464574984399
              ],
              [
                -74.01800802337449,
                40.70463836559953
              ],
              [
                -74.01799832152902,
                40.704649685418374
              ],
              [
                -74.01798926941159,
                40.704646731822145
              ],
              [
                -74.01797892738368,
                40.704640824588054
              ],
              [
                -74.01796922420502,
                40.70464721810146
              ],
              [
                -74.01794401937286,
                40.70464820843327
              ],
              [
                -74.01794142815905,
                40.70465558354963
              ],
              [
                -74.01791039104725,
                40.70465903307631
              ],
              [
                -74.01790198846368,
                40.70465164811165
              ],
              [
                -74.0178399261186,
                40.70466099554279
              ],
              [
                -74.01782893315087,
                40.70466492994573
              ],
              [
                -74.01780630901126,
                40.704661985472676
              ],
              [
                -74.01779789585463,
                40.704666902187796
              ],
              [
                -74.01778367349166,
                40.704670837588296
              ],
              [
                -74.01776687049336,
                40.704664930160526
              ],
              [
                -74.0177655688175,
                40.704672315460535
              ],
              [
                -74.017749416039,
                40.70467526793792
              ],
              [
                -74.01773325394228,
                40.70467133287104
              ],
              [
                -74.017718379389,
                40.70467969845172
              ],
              [
                -74.01768670225856,
                40.70467379112305
              ],
              [
                -74.01767570940247,
                40.704680679349956
              ],
              [
                -74.01763433061089,
                40.70467870787123
              ],
              [
                -74.01759808539691,
                40.7046842721365
              ],
              [
                -74.01756693013898,
                40.70467138584931
              ],
              [
                -74.01757369902539,
                40.70466778365257
              ],
              [
                -74.0175703146188,
                40.704662623998146
              ],
              [
                -74.01755812673757,
                40.70466572142448
              ],
              [
                -74.01754796252615,
                40.70466365937513
              ],
              [
                -74.01753170409474,
                40.704670872388405
              ],
              [
                -74.01748090483301,
                40.70466726085801
              ],
              [
                -74.01751646371467,
                40.70458062415007
              ],
              [
                -74.01865886498045,
                40.70442877929025
              ],
              [
                -74.01844704670988,
                40.70416235496205
              ],
              [
                -74.01784441106724,
                40.70424203993808
              ],
              [
                -74.01795473982637,
                40.70397578611135
              ],
              [
                -74.0179426936393,
                40.70397317657641
              ],
              [
                -74.01791229326221,
                40.704054497151176
              ],
              [
                -74.01780821746958,
                40.7040319644798
              ],
              [
                -74.01783782825969,
                40.70396266613868
              ],
              [
                -74.01781758697946,
                40.703937922496735
              ],
              [
                -74.01779139303439,
                40.70395091258379
              ],
              [
                -74.01775054986868,
                40.704054882893665
              ],
              [
                -74.01785585682929,
                40.70407884711323
              ],
              [
                -74.01779454520292,
                40.704234897598944
              ],
              [
                -74.01757035640019,
                40.704183880986754
              ],
              [
                -74.01762657963042,
                40.70402350132435
              ],
              [
                -74.01763399890552,
                40.70402475178334
              ],
              [
                -74.01764390293602,
                40.70402224590214
              ],
              [
                -74.01765461989739,
                40.704009682569954
              ],
              [
                -74.01765378898196,
                40.703998380812685
              ],
              [
                -74.0176430653269,
                40.70398897295898
              ],
              [
                -74.01765792483431,
                40.70393266178659
              ],
              [
                -74.01766578442248,
                40.703899233718715
              ],
              [
                -74.0176742874819,
                40.70383436757171
              ],
              [
                -74.01767689629422,
                40.70377050363873
              ],
              [
                -74.01767264581432,
                40.70371179104618
              ],
              [
                -74.01768310568113,
                40.70371113122548
              ],
              [
                -74.01767132020267,
                40.703606427383974
              ],
              [
                -74.01777128399804,
                40.70359805088019
              ],
              [
                -74.01777639388398,
                40.70363255834218
              ],
              [
                -74.01789088495364,
                40.703625207771836
              ],
              [
                -74.0178846288097,
                40.70358178318938
              ],
              [
                -74.01787839340639,
                40.70353850803738
              ],
              [
                -74.01776730114295,
                40.70354518126104
              ],
              [
                -74.01777128020329,
                40.703583815929825
              ],
              [
                -74.01766881307273,
                40.70359131346784
              ],
              [
                -74.0176604507462,
                40.70354997909775
              ],
              [
                -74.01764797506856,
                40.70349459987971
              ],
              [
                -74.01762601904936,
                40.7034227607247
              ],
              [
                -74.01761681217123,
                40.70342324846557
              ],
              [
                -74.01759647967049,
                40.70336138680664
              ],
              [
                -74.01757548561503,
                40.70330750305621
              ],
              [
                -74.01754038297949,
                40.70323616043002
              ],
              [
                -74.01749381162757,
                40.70315484295769
              ],
              [
                -74.01744003546041,
                40.70307751454204
              ],
              [
                -74.01739839332281,
                40.7030191408051
              ],
              [
                -74.01731837763408,
                40.702918871771736
              ],
              [
                -74.01729346221047,
                40.7028874392096
              ],
              [
                -74.01725328400002,
                40.702846222160254
              ],
              [
                -74.01724571591129,
                40.70283845773937
              ],
              [
                -74.01725182133951,
                40.70283555726394
              ],
              [
                -74.01714508062659,
                40.702705349976355
              ],
              [
                -74.0171370588938,
                40.70271134026786
              ],
              [
                -74.01700396789509,
                40.702554535627705
              ],
              [
                -74.0168965704124,
                40.70242187945712
              ],
              [
                -74.01681859599924,
                40.702338575080624
              ],
              [
                -74.01653258703746,
                40.70203653968321
              ],
              [
                -74.01651515260784,
                40.7020172986716
              ],
              [
                -74.01639205370195,
                40.70189770100838
              ],
              [
                -74.01624449060664,
                40.701752721436975
              ],
              [
                -74.01613890636003,
                40.70164601710288
              ],
              [
                -74.01611609060481,
                40.7016308016255
              ],
              [
                -74.01591034233417,
                40.70146094844401
              ],
              [
                -74.01579351711152,
                40.70134690580767
              ],
              [
                -74.01567778184742,
                40.70125602102762
              ],
              [
                -74.01514231812101,
                40.70084289235444
              ],
              [
                -74.0150211366168,
                40.70099250401358
              ],
              [
                -74.01482834225281,
                40.700894742869885
              ],
              [
                -74.01481072560142,
                40.70090383147972
              ],
              [
                -74.01467365628488,
                40.70083460902858
              ],
              [
                -74.01470265033885,
                40.70079911602585
              ],
              [
                -74.01472681782197,
                40.70077401584982
              ],
              [
                -74.0148200428468,
                40.700660619780386
              ],
              [
                -74.01488598965476,
                40.700580114435844
              ],
              [
                -74.0149419915596,
                40.70052384332593
              ],
              [
                -74.01493687947062,
                40.700522979381404
              ],
              [
                -74.01492379463954,
                40.70053033870729
              ],
              [
                -74.0149175465081,
                40.700525575712895
              ],
              [
                -74.01492322289359,
                40.70051519147163
              ],
              [
                -74.01494255505817,
                40.70050610329149
              ],
              [
                -74.01494881182721,
                40.700494413601405
              ],
              [
                -74.0149749555559,
                40.70047017772361
              ],
              [
                -74.01496757071698,
                40.70046541487977
              ],
              [
                -74.0149931457591,
                40.70043684732
              ],
              [
                -74.01500850517257,
                40.700437709926256
              ],
              [
                -74.01502271060053,
                40.70041953605881
              ],
              [
                -74.01503579735079,
                40.700420831010774
              ],
              [
                -74.01509832270126,
                40.700334265523615
              ],
              [
                -74.01506818269304,
                40.70031825755511
              ],
              [
                -74.01499883053579,
                40.70040612057669
              ],
              [
                -74.01493032611232,
                40.70047926986362
              ],
              [
                -74.01485926659413,
                40.700555444143156
              ],
              [
                -74.01481236514054,
                40.70061084993632
              ],
              [
                -74.0147714243914,
                40.700663651907036
              ],
              [
                -74.01472424834412,
                40.700714293894464
              ],
              [
                -74.01464323234912,
                40.700817304325284
              ],
              [
                -74.01432384363027,
                40.70066130462987
              ],
              [
                -74.01439480693739,
                40.700570479097465
              ],
              [
                -74.01439689988942,
                40.700563481390745
              ],
              [
                -74.01440947394667,
                40.700551331412484
              ],
              [
                -74.01447857931358,
                40.70046208215593
              ],
              [
                -74.01448492126376,
                40.70046115359216
              ],
              [
                -74.01449246893424,
                40.70045466900304
              ],
              [
                -74.01449342549972,
                40.70044516925076
              ],
              [
                -74.01455219325999,
                40.70038298075175
              ],
              [
                -74.01460825448508,
                40.70032365711401
              ],
              [
                -74.01460863003749,
                40.70030970874857
              ],
              [
                -74.01465386124694,
                40.70024264117531
              ],
              [
                -74.01466717213697,
                40.70023938040491
              ],
              [
                -74.01467119992007,
                40.700210401197275
              ],
              [
                -74.01463294333459,
                40.70019742990999
              ],
              [
                -74.01458234409445,
                40.700283875528726
              ],
              [
                -74.01458425440427,
                40.70030846895527
              ],
              [
                -74.01457513332033,
                40.70031691633137
              ],
              [
                -74.01455999973693,
                40.700309786779826
              ],
              [
                -74.01444813150722,
                40.70044737240012
              ],
              [
                -74.01436783583223,
                40.7005461226677
              ],
              [
                -74.01431796468086,
                40.70061249730801
              ],
              [
                -74.01431530264759,
                40.70061103797436
              ],
              [
                -74.0142965168929,
                40.700629186523855
              ],
              [
                -74.01430157023242,
                40.700632211772884
              ],
              [
                -74.01428920741134,
                40.70064414476523
              ],
              [
                -74.0141523878731,
                40.70057786628628
              ],
              [
                -74.01416495763293,
                40.700539052030976
              ],
              [
                -74.0141778793178,
                40.700541473553876
              ],
              [
                -74.01430981586157,
                40.70013410151579
              ],
              [
                -74.01430981311296,
                40.700121296068886
              ],
              [
                -74.01422063195494,
                40.700111491365895
              ],
              [
                -74.01417467279454,
                40.700260891294015
              ],
              [
                -74.01414860637789,
                40.7003205717239
              ],
              [
                -74.01413726388596,
                40.70039495521046
              ],
              [
                -74.01412821190823,
                40.700393282054776
              ],
              [
                -74.01409144949477,
                40.700508336224516
              ],
              [
                -74.01410490300086,
                40.700510828387
              ],
              [
                -74.01409198385475,
                40.70055161782475
              ],
              [
                -74.01395152756511,
                40.70099098246015
              ],
              [
                -74.01355826959487,
                40.70093987083072
              ],
              [
                -74.01351039592653,
                40.70065037115225
              ],
              [
                -74.01357712822566,
                40.7006436814762
              ],
              [
                -74.01355283229515,
                40.70050335766724
              ],
              [
                -74.01358541798506,
                40.70050191275641
              ],
              [
                -74.01358070018833,
                40.70045691449314
              ],
              [
                -74.013522959189,
                40.70046041540718
              ],
              [
                -74.01352361756736,
                40.700441937578496
              ],
              [
                -74.01355970548933,
                40.7004389344276
              ],
              [
                -74.01356297111607,
                40.70038001320659
              ],
              [
                -74.0135314747603,
                40.70038201618379
              ],
              [
                -74.01352950889165,
                40.700373524124274
              ],
              [
                -74.01356034144283,
                40.700366533437446
              ],
              [
                -74.01356131236537,
                40.700310097585316
              ],
              [
                -74.01353047796475,
                40.700311100346646
              ],
              [
                -74.01353310205637,
                40.700297124245914
              ],
              [
                -74.01356130931909,
                40.70029512215841
              ],
              [
                -74.01357049009941,
                40.70023220287155
              ],
              [
                -74.01361182269146,
                40.70024517414818
              ],
              [
                -74.01364265186702,
                40.70016178280957
              ],
              [
                -74.01366274969902,
                40.70013665653289
              ],
              [
                -74.01367479314794,
                40.700125821451
              ],
              [
                -74.01361029830721,
                40.7000842980873
              ],
              [
                -74.01358669315097,
                40.700079590847785
              ],
              [
                -74.01353285018102,
                40.70010816142342
              ],
              [
                -74.01350349660866,
                40.700176459528436
              ],
              [
                -74.01348311536113,
                40.700263388116475
              ],
              [
                -74.01348068493701,
                40.70035777106859
              ],
              [
                -74.01348560832739,
                40.7004782229086
              ],
              [
                -74.01327349483086,
                40.700496870227944
              ],
              [
                -74.013222880169,
                40.7003335860856
              ],
              [
                -74.01320736787197,
                40.700275216519024
              ],
              [
                -74.01320084197317,
                40.700239827976276
              ],
              [
                -74.01318571684631,
                40.70010323034406
              ],
              [
                -74.01317753563335,
                40.700017547965224
              ],
              [
                -74.01317547890291,
                40.700000832924225
              ],
              [
                -74.02,
                40.70000000000001
              ],
              [
                -74.02,
                40.725
              ],
              [
                -74.01182894084246,
                40.72500094972911
              ],
              [
                -74.01196432049122,
                40.724329864239905
              ],
              [
                -74.01209463829593,
                40.7237070524813
              ]
            ]
          ]
        ]
      },
      "id": "hudson-river-official-water"
    },
    {
      "type": "Feature",
      "properties": {
        "river_id": "east-river",
        "name": "East River"
      },
      "geometry": {
        "type": "MultiPolygon",
        "coordinates": [
          [
            [
              [
                -73.9947923129999,
                40.70408889470734
              ],
              [
                -73.99479231460055,
                40.70406840513132
              ],
              [
                -73.99477158125167,
                40.70404936037464
              ],
              [
                -73.99471424235155,
                40.7039966885585
              ],
              [
                -73.99476934191567,
                40.70395289495375
              ],
              [
                -73.99483637435264,
                40.70398633908117
              ],
              [
                -73.99488204726408,
                40.70400865389533
              ],
              [
                -73.9950292598249,
                40.703808200365614
              ],
              [
                -73.99492964675287,
                40.70377131558658
              ],
              [
                -73.99491043069514,
                40.703797316461525
              ],
              [
                -73.99488239968474,
                40.70378802583762
              ],
              [
                -73.99499542533941,
                40.70365056321184
              ],
              [
                -73.99485765933731,
                40.70356613902888
              ],
              [
                -73.99466290343612,
                40.70343060805677
              ],
              [
                -73.99480038274869,
                40.70329195814218
              ],
              [
                -73.99498203312825,
                40.70338171553537
              ],
              [
                -73.99529346766973,
                40.703554065898174
              ],
              [
                -73.99544564312066,
                40.70327530597453
              ],
              [
                -73.99504592748325,
                40.70313183979974
              ],
              [
                -73.99506438491512,
                40.70310031365369
              ],
              [
                -73.99513826840686,
                40.70297411472301
              ],
              [
                -73.99588611950185,
                40.703260077085154
              ],
              [
                -73.9961922729477,
                40.7033771413669
              ],
              [
                -73.99813879965494,
                40.70151878774598
              ],
              [
                -73.99780162786313,
                40.701319394766436
              ],
              [
                -73.9977601109966,
                40.70135941487691
              ],
              [
                -73.99752763273975,
                40.701228816456286
              ],
              [
                -73.99682189085863,
                40.70099078232546
              ],
              [
                -73.99669768997464,
                40.70087697691724
              ],
              [
                -73.99724462871697,
                40.70014140989725
              ],
              [
                -73.99717584355882,
                40.70010599196653
              ],
              [
                -73.99718114453641,
                40.70000120404956
              ],
              [
                -73.99854582733059,
                40.70000125886652
              ],
              [
                -73.99947463904962,
                40.700322777515915
              ],
              [
                -73.99967868736483,
                40.70000129211547
              ],
              [
                -74.00100007577531,
                40.700001316849736
              ],
              [
                -74.00100010300393,
                40.70515759909723
              ],
              [
                -74.00084523503796,
                40.705254518846395
              ],
              [
                -74.0005924020935,
                40.7054100789111
              ],
              [
                -74.00100010581164,
                40.70579529106237
              ],
              [
                -74.00100010838919,
                40.70640700419995
              ],
              [
                -74.00098276691733,
                40.70641671299312
              ],
              [
                -74.00100010850706,
                40.70643563465332
              ],
              [
                -74.0010001106271,
                40.70696135818826
              ],
              [
                -74.00088259097625,
                40.70702525380325
              ],
              [
                -74.00084973367689,
                40.70704311863672
              ],
              [
                -74.00077175219104,
                40.70708014820094
              ],
              [
                -74.00055247932056,
                40.70718427592316
              ],
              [
                -74.0004002783203,
                40.707260279570875
              ],
              [
                -74.00023380525761,
                40.70734714248703
              ],
              [
                -74.00013868859142,
                40.7074050544077
              ],
              [
                -73.99999645016025,
                40.70749164789867
              ],
              [
                -73.99997222648798,
                40.70750639882222
              ],
              [
                -73.99995671262306,
                40.70753119885605
              ],
              [
                -73.9999485595232,
                40.707558691553935
              ],
              [
                -73.99994505655111,
                40.707582626983495
              ],
              [
                -73.9999485594979,
                40.707591496371165
              ],
              [
                -73.9998829708522,
                40.70762408603547
              ],
              [
                -73.99960948039251,
                40.70775997317647
              ],
              [
                -73.9995714951379,
                40.70771719868865
              ],
              [
                -73.99955121325496,
                40.70769435277668
              ],
              [
                -73.9995383965945,
                40.70769347002584
              ],
              [
                -73.99949062474623,
                40.70772184522518
              ],
              [
                -73.99951211364754,
                40.70774870660928
              ],
              [
                -73.99952324941067,
                40.7077626286583
              ],
              [
                -73.99946033075192,
                40.707796326451266
              ],
              [
                -73.99942129138608,
                40.7078189370555
              ],
              [
                -73.9993822517736,
                40.7078415493217
              ],
              [
                -73.99932632675426,
                40.70787967649411
              ],
              [
                -73.99925945470771,
                40.70791402131059
              ],
              [
                -73.99919451174895,
                40.70794737685424
              ],
              [
                -73.99913434918952,
                40.70798239694612
              ],
              [
                -73.9990527673855,
                40.70803254586652
              ],
              [
                -73.99898340963244,
                40.70809265331633
              ],
              [
                -73.9988813086388,
                40.708136633919956
              ],
              [
                -73.99882158420984,
                40.70817548167767
              ],
              [
                -73.99880846276645,
                40.708200134992836
              ],
              [
                -73.99875396570859,
                40.70822365102738
              ],
              [
                -73.99872197955064,
                40.70823745289636
              ],
              [
                -73.99856114620616,
                40.70831528323372
              ],
              [
                -73.99852758585311,
                40.708331527908456
              ],
              [
                -73.99828602320592,
                40.70842993146777
              ],
              [
                -73.99808351186999,
                40.70850961536731
              ],
              [
                -73.99728287195578,
                40.70873161984308
              ],
              [
                -73.9966640099659,
                40.70882690451789
              ],
              [
                -73.99601898395763,
                40.70891622384764
              ],
              [
                -73.99517577369836,
                40.709034293307916
              ],
              [
                -73.99457899963724,
                40.70913097291022
              ],
              [
                -73.99437823543936,
                40.709192639199095
              ],
              [
                -73.99414063200345,
                40.7092332674001
              ],
              [
                -73.99400820164045,
                40.709237479919196
              ],
              [
                -73.99374012862228,
                40.70924612043552
              ],
              [
                -73.99284846748647,
                40.709381877638926
              ],
              [
                -73.9923611613991,
                40.7094643688116
              ],
              [
                -73.9921486897015,
                40.709498609104266
              ],
              [
                -73.99209131635969,
                40.709508222903956
              ],
              [
                -73.99203926968346,
                40.70951691966548
              ],
              [
                -73.9919054436645,
                40.709525396582414
              ],
              [
                -73.99176779580132,
                40.709555055523886
              ],
              [
                -73.99170260292523,
                40.709565262453616
              ],
              [
                -73.9913510923706,
                40.709620332703494
              ],
              [
                -73.99106783463007,
                40.70965722984279
              ],
              [
                -73.9907891301856,
                40.70968950658885
              ],
              [
                -73.99051420376698,
                40.709733884118975
              ],
              [
                -73.99015825373382,
                40.70979037266393
              ],
              [
                -73.98974515155741,
                40.70984876165581
              ],
              [
                -73.98957449608719,
                40.709874081606685
              ],
              [
                -73.98946067019428,
                40.70988928705145
              ],
              [
                -73.98935765696677,
                40.70990098670802
              ],
              [
                -73.98889845980884,
                40.709954735765194
              ],
              [
                -73.98879717785803,
                40.70996660747239
              ],
              [
                -73.98873681707525,
                40.709970741845254
              ],
              [
                -73.98871771111247,
                40.709947090016435
              ],
              [
                -73.98869610271332,
                40.70992844984473
              ],
              [
                -73.98866750580943,
                40.70992003483091
              ],
              [
                -73.98864533493685,
                40.70991693389871
              ],
              [
                -73.9886365807185,
                40.70991206151646
              ],
              [
                -73.9884972717388,
                40.70917630529335
              ],
              [
                -73.98847967268775,
                40.70915584680607
              ],
              [
                -73.98844653437385,
                40.70913382054716
              ],
              [
                -73.98839064023267,
                40.709126949162815
              ],
              [
                -73.9881554605141,
                40.70914914247344
              ],
              [
                -73.98814626172096,
                40.709159167015024
              ],
              [
                -73.98639828917548,
                40.7093265843858
              ],
              [
                -73.98500002263859,
                40.70946119240717
              ],
              [
                -73.98500001654341,
                40.70551341159933
              ],
              [
                -73.98643429892708,
                40.70534860741984
              ],
              [
                -73.98642911608677,
                40.705069179428186
              ],
              [
                -73.98652972946046,
                40.70497909917388
              ],
              [
                -73.9866227794053,
                40.70497860945434
              ],
              [
                -73.98664041303033,
                40.70501536439528
              ],
              [
                -73.98666530954449,
                40.70504959937778
              ],
              [
                -73.98669686891394,
                40.705080489285834
              ],
              [
                -73.98673433051667,
                40.70510728962397
              ],
              [
                -73.9867767914742,
                40.70512935446084
              ],
              [
                -73.98682322841232,
                40.70514615199776
              ],
              [
                -73.98687252212638,
                40.70515727738632
              ],
              [
                -73.98692348455644,
                40.70516246248601
              ],
              [
                -73.98726969367199,
                40.705175720191875
              ],
              [
                -73.98795676557543,
                40.70513421741272
              ],
              [
                -73.98923975577881,
                40.7051479810391
              ],
              [
                -73.98930731978164,
                40.70514870535651
              ],
              [
                -73.98942993356626,
                40.70514924757476
              ],
              [
                -73.9895830534209,
                40.705154836166535
              ],
              [
                -73.98970166167422,
                40.705159167028974
              ],
              [
                -73.98999422729753,
                40.70516984806055
              ],
              [
                -73.99088177376606,
                40.70512403158548
              ],
              [
                -73.99147964687518,
                40.705624752648596
              ],
              [
                -73.99272220924222,
                40.70554382833544
              ],
              [
                -73.99385266076528,
                40.7048294649293
              ],
              [
                -73.99368792224483,
                40.704477914211736
              ],
              [
                -73.99369336129286,
                40.70447612883801
              ],
              [
                -73.99377457207805,
                40.70444945740894
              ],
              [
                -73.993781554265,
                40.70446894454396
              ],
              [
                -73.99380687248417,
                40.704539612711734
              ],
              [
                -73.99386341031881,
                40.70455600693061
              ],
              [
                -73.99456979016932,
                40.70437626351409
              ],
              [
                -73.99463603474437,
                40.70433440292617
              ],
              [
                -73.99463603509714,
                40.704334403205785
              ],
              [
                -73.9947022906841,
                40.70429253141116
              ],
              [
                -73.99477614353458,
                40.704245861052534
              ],
              [
                -73.994698074708,
                40.704164700797484
              ],
              [
                -73.99477286228574,
                40.70410454169946
              ],
              [
                -73.9947923129999,
                40.70408889470734
              ]
            ]
          ]
        ]
      },
      "id": "east-river-official-water"
    }
  ],
  "name": "rivers",
  "crs": {
    "type": "name",
    "properties": {
      "name": "urn:ogc:def:crs:OGC:1.3:CRS84"
    }
  },
  "metadata": {
    "fixture": false,
    "official_data": true,
    "region": "Lower Manhattan, New York City",
    "coordinate_reference_system": "OGC:CRS84",
    "source": "NYC Open Data official snapshot",
    "publishers": [
      "NYC Department of City Planning (DCP)"
    ],
    "dataset_ids": [
      "5crt-au7u",
      "6ak9-vek3"
    ],
    "dataset_urls": [
      "https://data.cityofnewyork.us/d/5crt-au7u",
      "https://data.cityofnewyork.us/d/6ak9-vek3"
    ],
    "source_files": [
      "community-districts.geojson",
      "community-districts-water.geojson"
    ],
    "snapshot_date": "2026-08-27",
    "terms": "NYC Open Data Terms of Use",
    "terms_url": "https://opendata.cityofnewyork.us/overview/#termsofuse",
    "processing": "Official water-included district union minus land-only district union; clipped to Demo extent and split west/east as Hudson River and East River."
  }
}
