{ "type": "FeatureCollection", "features": [{"type":"Feature","geometry":{"type":"MultiPolygon","coordinates":[[[[-74.0438776163991,40.69018767537141],[-74.04350596078567,40.68968735963629],[-74.04273533892976,40.6900501909178],[-74.04278433380006,40.69012097669134],[-74.04270428426766,40.6901552046445],[-74.04255372037339,40.68996275979236],[-74.0426392937119,40.68992817641353],[-74.04269380819214,40.68999725960997],[-74.04346752310298,40.689636990606225],[-74.04351637245823,40.68919103323996],[-74.04364078627412,40.68876655957033],[-74.04397458556184,40.688582407056096],[-74.04438521777247,40.688516177900276],[-74.04478399106388,40.688595660115794],[-74.04627539003633,40.68932742539434],[-74.04680284898575,40.689953256266215],[-74.0474765152837,40.68961136999821],[-74.04772962763064,40.6899153184662],[-74.04758571924822,40.6899825073289],[-74.04743126123475,40.68980388996851],[-74.04689205500591,40.690059098322806],[-74.04720029366216,40.69042481512135],[-74.04711050698607,40.690470412850274],[-74.04711582042361,40.69065580611837],[-74.04718321412064,40.69074735504927],[-74.04719492513735,40.69076326384837],[-74.04721324567835,40.69079048732638],[-74.04722568425278,40.69081957243567],[-74.04723192827254,40.690849788269944],[-74.04723182081725,40.69088037550696],[-74.04722536457862,40.690910565490086],[-74.04721272179357,40.690939599544606],[-74.04719421016807,40.69096674804344],[-74.0471702948939,40.690991328742676],[-74.04714091053252,40.69101051634466],[-74.04710814053631,40.69102620847252],[-74.04707269656511,40.691038064342266],[-74.0470353483505,40.69104582648131],[-74.04699690697936,40.69104932632006],[-74.04617167065449,40.691097981486514],[-74.04614707208631,40.691122645530776],[-74.04609551067004,40.691120063213965],[-74.04604442457416,40.69111415249367],[-74.04599418395566,40.6911049561975],[-74.0459259276653,40.69108260354682],[-74.04586027427379,40.691056116080965],[-74.04460616482923,40.69057348495099],[-74.0438776163991,40.69018767537141]]],[[[-74.04037134801135,40.70012264255848],[-74.04029983079131,40.70010666122973],[-74.04022131628301,40.700113091585514],[-74.04012176861717,40.700116327273115],[-74.04006286925896,40.70009820710074],[-74.04000396352954,40.70006941574914],[-74.03993523694733,40.70002995679148],[-74.03987632812007,40.69999689728348],[-74.03982442765316,40.69995849940968],[-74.03977394870654,40.699953181624046],[-74.03970383928056,40.69994573562224],[-74.03965334363093,40.6999126732648],[-74.03962107569691,40.699880670922845],[-74.03954674847907,40.699854019109104],[-74.03948783623592,40.6998134896972],[-74.0394303306441,40.699780429478686],[-74.039367221505,40.69975590749983],[-74.03931813484016,40.69973351532932],[-74.03925082056196,40.69971112902029],[-74.03916668464372,40.699694083638164],[-74.03909657533852,40.69968663827146],[-74.03903207799623,40.69968559301343],[-74.03897178713575,40.699684546295046],[-74.03891429209703,40.69966855935599],[-74.03885397699936,40.69962589529322],[-74.03880627266417,40.699569355019605],[-74.03876276885461,40.699503209308006],[-74.03874310752309,40.69944772704326],[-74.03874167126195,40.6993890361903],[-74.03871359334833,40.69932715402762],[-74.03868272153125,40.69928234617124],[-74.0386238167206,40.69925248696169],[-74.03853125423386,40.69921090119607],[-74.0384933607577,40.69914688779893],[-74.03848072298685,40.6991138120889],[-74.03846666808383,40.69905512544825],[-74.0384526169438,40.699001775218164],[-74.03845258370814,40.69894415154093],[-74.03844413330664,40.69887906163875],[-74.03844692220781,40.69885238265762],[-74.03843989369778,40.698820371714206],[-74.0384062192017,40.698778766330804],[-74.03838797280858,40.698744624829075],[-74.0383641141926,40.69870408364252],[-74.03836269424626,40.698673137972996],[-74.03838791382293,40.69864218342128],[-74.03841735907037,40.69864430739159],[-74.03844960710025,40.69864536377189],[-74.03847484941177,40.698653892191935],[-74.03850710444719,40.69866668685567],[-74.03854356961311,40.6986858829934],[-74.03858843338682,40.698681598862635],[-74.03862486586024,40.69864317129495],[-74.0386921534176,40.69862287420678],[-74.03880290626624,40.69860362857727],[-74.03887720836664,40.69858973090353],[-74.03896272936329,40.69858009797971],[-74.03904824908517,40.6985683306951],[-74.03915480598657,40.698567227345364],[-74.03921649985922,40.698571475103655],[-74.0392613798839,40.698593869090644],[-74.03932169116158,40.69863119720252],[-74.03937640214565,40.6986823991282],[-74.0394226888257,40.6987133294262],[-74.03947599215621,40.6987538611358],[-74.03951105465487,40.698771989294],[-74.03956713890962,40.69877410432477],[-74.03963302863839,40.698760209725165],[-74.03967087028649,40.69873565343823],[-74.03972692846935,40.698692949657655],[-74.03993272132986,40.69854442279383],[-74.04025555083275,40.698804823307505],[-74.04010009945048,40.69892324347259],[-74.04001368056961,40.69889368220006],[-74.03997479609573,40.69888711993103],[-74.03993158724123,40.698873983033295],[-74.03987974866246,40.69887728973476],[-74.03982791749424,40.69889374663193],[-74.0397933763783,40.69892663815397],[-74.03979339404114,40.698956229999375],[-74.03981502029846,40.69899896526314],[-74.03985391858033,40.69902854314913],[-74.03991442290604,40.69906797753726],[-74.03996628594466,40.699104126836495],[-74.04001382659966,40.69913698938959],[-74.04005703168964,40.69914355014164],[-74.04009591829892,40.699153400774904],[-74.04015641297879,40.69917639508439],[-74.04019531548067,40.69921254930369],[-74.0401996537943,40.69924213863384],[-74.04019966568966,40.69926186630658],[-74.04025153212358,40.699304591423385],[-74.04029907107481,40.69933416613577],[-74.04033364199015,40.699350593980036],[-74.04036821093128,40.69936373325424],[-74.0404114175359,40.69937358209792],[-74.04043303435445,40.699399877628046],[-74.04044523628797,40.69942473170762],[-74.0404662947079,40.699469542374025],[-74.04047473442229,40.699513290995895],[-74.0404817587985,40.69953676462439],[-74.0404873855589,40.69956770878494],[-74.04050142030712,40.69959011313217],[-74.0405308833369,40.69962104890016],[-74.04057156191787,40.69965091355889],[-74.04059681332842,40.699673312934664],[-74.04060664621556,40.699702121810446],[-74.04062630332076,40.69974800025662],[-74.04062773019314,40.69978854939231],[-74.04063196074299,40.699828030724426],[-74.0406516146495,40.69986857392597],[-74.04066986641486,40.69990911694932],[-74.04069513880091,40.699965664549694],[-74.04071479996368,40.70001687872104],[-74.04073446180018,40.700070226850706],[-74.04074290567931,40.70012037783734],[-74.04074713631029,40.700160926312165],[-74.04073313721835,40.700197212142534],[-74.04070370121288,40.70021002800454],[-74.04065462786066,40.700211112497236],[-74.04059853910333,40.700204730408615],[-74.04053683324955,40.70018340952038],[-74.0404849441414,40.70016421977875],[-74.04043865983174,40.70014075961763],[-74.04037134801135,40.70012264255848]]],[[[-74.0111435335986,40.725814475973884],[-74.01102458017179,40.725793862211134],[-74.01092277258171,40.72579415134844],[-74.01081238260726,40.72578980255595],[-74.01005338591689,40.725244450869816],[-74.00973152346175,40.72499037153149],[-74.00931760445084,40.724701551389174],[-74.00864380566408,40.72422131745543],[-74.0085709097978,40.72416935528251],[-74.0083021626478,40.72397780901872],[-74.00807835289478,40.72382686326653],[-74.0079120604296,40.72369976726767],[-74.00762904152717,40.7234977035756],[-74.00629841710706,40.72254950366814],[-74.00591289877082,40.72225294916509],[-74.00530986129975,40.72182419181322],[-74.00522716174571,40.72174410256048],[-74.00463516244645,40.72135363324089],[-74.00392928359474,40.72085443506054],[-74.00351186439296,40.72055635239198],[-74.00325955115203,40.720377095758494],[-74.00260001909851,40.71990342582805],[-74.00188406309478,40.71939757028799],[-74.00140055682621,40.71905262070164],[-74.00127273406261,40.71896142644613],[-74.00053195521231,40.71843023851164],[-73.99995620864657,40.718017095087355],[-73.99931241700145,40.71755024177758],[-73.99944838246387,40.7173297970985],[-73.9999309777797,40.716543914270694],[-74.00013820973885,40.716199730562494],[-74.00057839216119,40.71557090242185],[-74.00078955186169,40.7152909684016],[-74.00052734942693,40.715170059365484],[-74.0004546306596,40.71436504759906],[-74.0002210584419,40.714250626889495],[-74.00062461465946,40.71311189083325],[-74.00063383195948,40.71308117856864],[-74.00084505525271,40.71303962097763],[-74.00089354391562,40.713029950787984],[-74.00089166286932,40.712999257351036],[-74.0008727637329,40.71169696831581],[-74.00086402881165,40.711619549709525],[-74.00084889425786,40.71154270446919],[-74.00082742036012,40.711466738596656],[-74.00079969264986,40.71139195459112],[-74.00076582156038,40.71131865024449],[-74.00072594214177,40.71124711749313],[-74.00068021306141,40.71117764113572],[-74.00062881642994,40.71111049782633],[-74.00057195692423,40.711045954928046],[-74.00050986097234,40.71098426944842],[-74.00065774673965,40.71080077033941],[-74.00079637813212,40.71061828715173],[-74.00090633637271,40.7104778313565],[-74.00100325508991,40.71035402976382],[-74.00113646757461,40.71017596422549],[-74.00123476628733,40.71005533303578],[-74.00128258598552,40.70999405347307],[-74.00141934716292,40.7098147957721],[-74.00147140298127,40.70974655432343],[-74.00134439913731,40.70964629295911],[-74.00055004953066,40.709017917299676],[-74.00026566682726,40.70879294941725],[-74.00019103138898,40.70873391286489],[-74.00012359123079,40.7086845192809],[-74.00000765589327,40.70859961998657],[-73.99992936423627,40.70853681759008],[-73.9998119392456,40.70844261498347],[-73.9995627336694,40.70823648314776],[-73.99944281440469,40.708136556756756],[-73.99939955073678,40.70810033785776],[-73.99936195582275,40.708072286588504],[-73.99928731116864,40.70801660316896],[-73.99919451174895,40.70794737685425],[-73.99808986428427,40.70707189897288],[-73.99654394039545,40.70584664426538],[-73.99621205120553,40.70558359095002],[-73.99497729707473,40.70460490178875],[-73.99463603474435,40.70433440342875],[-73.9947022906841,40.70429253141116],[-73.99477614353458,40.70424586105254],[-73.994698074708,40.704164700797485],[-73.99477286228574,40.70410454169946],[-73.9947923129999,40.70408889470735],[-73.99479231460055,40.70406840513134],[-73.99477158125167,40.70404936037464],[-73.99471424235155,40.70399668855851],[-73.99476934191567,40.70395289495375],[-73.99483637435264,40.70398633908117],[-73.99488204726408,40.70400865389534],[-73.9950292598249,40.70380820036562],[-73.99492964675287,40.70377131558657],[-73.99491043069514,40.703797316461525],[-73.99488239968474,40.70378802583762],[-73.99499542533941,40.70365056321185],[-73.99485765933731,40.70356613902887],[-73.99466290343612,40.70343060805678],[-73.99480038274869,40.70329195814218],[-73.99498203312825,40.70338171553537],[-73.99529346766973,40.70355406589818],[-73.99544564312066,40.70327530597453],[-73.99504592748325,40.70313183979974],[-73.99506438491512,40.70310031365369],[-73.99513826840686,40.70297411472301],[-73.99588611950185,40.703260077085154],[-73.9961922729477,40.7033771413669],[-73.99813879965494,40.70151878774599],[-73.99780162786313,40.70131939476643],[-73.99776011099658,40.701359414876904],[-73.99752763273975,40.7012288164563],[-73.99682189085863,40.700990782325455],[-73.99669768997464,40.70087697691724],[-73.99724462871697,40.70014140989725],[-73.99717584355882,40.70010599196653],[-73.99718148446388,40.699994484465684],[-73.99716054243922,40.69979281264431],[-73.99736745811687,40.69963423442734],[-73.9974989831,40.69963886932142],[-73.99947463904962,40.700322777515915],[-74.0000184043362,40.69946604807382],[-73.99802102725111,40.69876173657397],[-73.99837760685772,40.698063296146266],[-74.00048768628551,40.6987577781373],[-74.00104903123557,40.69790823569241],[-73.99887117097656,40.69715757679343],[-73.99876458027705,40.69712073309417],[-73.99887207276453,40.69692378407174],[-73.99893969034687,40.69694094051598],[-73.99899604139195,40.69681227837313],[-73.99918199016862,40.696885188567514],[-73.99929468836194,40.69679512579423],[-73.99947406820606,40.696704134462166],[-73.99952373903514,40.69657482604102],[-73.99941302433207,40.696357676956055],[-73.99941971968092,40.6963469378187],[-73.9994614351467,40.69628002660449],[-73.99959546796508,40.69606503883681],[-73.99988214960378,40.695605199245804],[-74.00026872377788,40.69496580207552],[-74.00239802583796,40.69571165536724],[-74.00263556890172,40.69536203703775],[-74.00301393829082,40.69477784447932],[-74.0009586848302,40.69406908358239],[-74.00127014968672,40.69329606167391],[-74.00345348556655,40.69405163067151],[-74.00374561972463,40.693616202981254],[-74.00400795971098,40.69320819963255],[-74.0017436211104,40.69240674970565],[-74.00179839892095,40.69227001601037],[-74.00181121967667,40.692238012881276],[-74.00181765040732,40.6922219624816],[-74.00196938592107,40.69184320831766],[-74.00440941326008,40.692528800892056],[-74.00479415294552,40.69176162037459],[-74.00069905841879,40.69061185841923],[-74.0009615685494,40.69012876784768],[-74.00185304524621,40.690387986742],[-74.00196321992863,40.690136379460924],[-74.00297565436566,40.69042657592089],[-74.00534209624915,40.69109160297804],[-74.00575900736366,40.690236399513765],[-74.0034092162452,40.68961326116028],[-74.0038203891973,40.6889296441969],[-74.00636461225272,40.68966966913975],[-74.00678438505835,40.68882687995842],[-74.00459270521768,40.68821522248419],[-74.0050037331507,40.68760598489845],[-74.00742012154097,40.6882062904361],[-74.00783293766683,40.6873850551629],[-74.005629863304,40.686784206043804],[-74.00566680246703,40.68669807883398],[-74.00588224183227,40.6861957683912],[-74.00644146832336,40.6862884902323],[-74.00701988682654,40.68652641719425],[-74.00754474403935,40.68631824409119],[-74.00771707561822,40.68626442901849],[-74.00776833635145,40.68624913667171],[-74.00782695474203,40.68624062883449],[-74.00788712164156,40.68624579479357],[-74.0079344154301,40.686281943481326],[-74.007981841317,40.686275822096015],[-74.0081641459391,40.686174717161656],[-74.00835446532169,40.6864001997483],[-74.00859803329713,40.68625256408518],[-74.0086955995557,40.68619331801277],[-74.0087859013092,40.68614660229906],[-74.01217596614644,40.684095186131245],[-74.01193259977079,40.683887749155076],[-74.01262428290774,40.683468695889296],[-74.01282000398867,40.68362241649745],[-74.01486782800727,40.68238321354489],[-74.01508295187081,40.68225409932074],[-74.01532059864759,40.68211072878072],[-74.01520082279144,40.68197941993083],[-74.01678834016225,40.68102196579507],[-74.01684837002347,40.68098575898777],[-74.01746928903134,40.68061473170099],[-74.01757049494164,40.68065064812441],[-74.01764735085476,40.68060189084181],[-74.01772532572437,40.680661902673755],[-74.01899105471408,40.6799049932014],[-74.01892813988314,40.67984430511124],[-74.0190683342972,40.67976074797666],[-74.01928128102017,40.679648140092965],[-74.0194177599097,40.67969472116238],[-74.01955939822047,40.67974306274616],[-74.01984812278376,40.6798416050126],[-74.02039016995113,40.68002660401396],[-74.02111521215461,40.680274052997],[-74.02832661932929,40.682734876153276],[-74.03034663905453,40.68342407415033],[-74.03139726637902,40.68378251191715],[-74.03268472018742,40.68422172756277],[-74.03337675353427,40.684457807139154],[-74.03391745407401,40.684642256890285],[-74.03457281029688,40.684865814534575],[-74.03200066934198,40.68945960560298],[-74.02621276809839,40.69979414458309],[-74.02591432133019,40.701616131980686],[-74.02535812437687,40.704735244233795],[-74.02500400888923,40.706719337228606],[-74.02500150195415,40.70673414030039],[-74.02425402448425,40.7111474414465],[-74.02402484440144,40.7125004728258],[-74.0239634387803,40.71288534516744],[-74.02393387797629,40.71303749193551],[-74.02379765725206,40.71372475511665],[-74.02378133516294,40.713804679900115],[-74.0237755485209,40.713833015932885],[-74.02376815065054,40.71386924499487],[-74.02376129167754,40.71390283070486],[-74.0237454756631,40.71398028066889],[-74.02366982918987,40.71435071388753],[-74.02244651412222,40.72034053507556],[-74.02165262695495,40.724216974955525],[-74.02168932180253,40.7254700265318],[-74.02151429561242,40.72748578637612],[-74.02150587999,40.727560062557515],[-74.02131954284854,40.72753122248591],[-74.02104302959425,40.72748842539864],[-74.0207816692661,40.727447972464105],[-74.02033200176723,40.72737837322115],[-74.01983771870998,40.727301865422326],[-74.01956189224451,40.727259170703235],[-74.01925990023868,40.72721242505553],[-74.01764880350713,40.72696302735614],[-74.01721690842004,40.72689616568183],[-74.01517084085862,40.726579390657754],[-74.01175747477754,40.72618990533803],[-74.01158194063746,40.72617103483217],[-74.01147123249083,40.72606197969027],[-74.01129464114884,40.725954942917134],[-74.0111435335986,40.725814475973884]]]]},"properties":{"boro_cd":"101","shape_leng":"66538.8016285","shape_area":"109670005.268"}},{"type":"Feature","geometry":{"type":"MultiPolygon","coordinates":[[[[-73.99179396219469,40.7263917948592],[-73.99206108543514,40.72564461433449],[-73.99221516612971,40.72523259566832],[-73.99232767958787,40.7249060973922],[-73.99257987396696,40.724201554923425],[-73.99260322198438,40.72413644968358],[-73.99263254954295,40.724056865152576],[-73.9930919022704,40.722820084364145],[-73.99326016194931,40.72235442627813],[-73.99333917242929,40.72214113966941],[-73.99336181506884,40.72208001783559],[-73.99352731367806,40.7216332613661],[-73.99379593869148,40.72093753696335],[-73.9938379218417,40.720832148621945],[-73.9940415520236,40.72032097982332],[-73.99407263221248,40.72024349090313],[-73.99416805982594,40.72001184625224],[-73.99423470916308,40.71985151456367],[-73.99439866258628,40.719457108928],[-73.99480779021309,40.71845742635051],[-73.9954287587875,40.717279243048054],[-73.99580912349244,40.71664465920558],[-73.99605872744375,40.716231640211106],[-73.99698375215492,40.71654054317223],[-73.99776285925766,40.7168139281217],[-73.99858925568033,40.7170995115373],[-73.99931241700145,40.71755024177758],[-73.99995620864657,40.718017095087355],[-74.00053195521231,40.71843023851164],[-74.00127273340206,40.718961425943554],[-74.00140055682618,40.719052619696484],[-74.00188406309476,40.719397569785414],[-74.00260001909851,40.71990342582805],[-74.00325955049146,40.72037709575852],[-74.00351186439296,40.72055635239198],[-74.00392928293415,40.720854434557985],[-74.00463516244645,40.72135363324089],[-74.00522716174571,40.72174410256048],[-74.00530986129975,40.72182419181322],[-74.00591289877082,40.72225294916509],[-74.006298417107,40.72254950316556],[-74.00762904152717,40.7234977035756],[-74.0079120604296,40.72369976726767],[-74.00807835289471,40.72382686276396],[-74.00830216264774,40.72397780851613],[-74.00857090979774,40.72416935477994],[-74.00864380566408,40.72422131745543],[-74.00931760445077,40.72470155088658],[-74.00973152280108,40.72499037102898],[-74.01005338591689,40.725244450869816],[-74.01081238260726,40.72578980255595],[-74.01092277258171,40.72579415134844],[-74.01102457951109,40.72579386170861],[-74.01114353359851,40.72581447547131],[-74.01129464114884,40.725954942917134],[-74.01147123249083,40.72606197969027],[-74.01158193997675,40.72617103432967],[-74.01175747477745,40.72618990483546],[-74.01517084019788,40.726579390155266],[-74.01721690842004,40.72689616568183],[-74.01764880350713,40.72696302735614],[-74.01925989957805,40.727212425055626],[-74.01956189224451,40.727259170703235],[-74.01983771804935,40.727301865422426],[-74.02033200176723,40.72737837322115],[-74.0207816692661,40.727447972464105],[-74.02104302893362,40.727488425398775],[-74.02131954284854,40.72753122248591],[-74.02150587998983,40.72756006205494],[-74.02148716830955,40.72764239885792],[-74.0211181763124,40.729072395585305],[-74.02077081744076,40.73042507377074],[-74.02057585389427,40.73115673478823],[-74.02023820309327,40.73241027692851],[-74.02020276566326,40.7325418392154],[-74.02014145673434,40.73276944511528],[-74.01917689316653,40.736371825640596],[-74.01804704992662,40.740710381083396],[-74.01733942104566,40.74418879603744],[-74.01715593242915,40.74415921911484],[-74.01685308765207,40.74409554823484],[-74.01638137160306,40.743997042508774],[-74.01594988619976,40.743912241476444],[-74.01564030763429,40.74384612664278],[-74.0140878075869,40.743536749372645],[-74.01372759307135,40.74345366700974],[-74.012710162693,40.74325508423342],[-74.009332268717,40.74257225660699],[-74.00915345169417,40.74249618705368],[-74.00901826641196,40.74243747858323],[-74.0088933979832,40.74238416718943],[-74.00879080522749,40.74237514372377],[-74.00869902296354,40.74236172346094],[-74.00820401878433,40.7421475182885],[-74.00779116134794,40.74197084424423],[-74.00697077724404,40.74162712715832],[-74.00544214844913,40.74098214026187],[-74.00536222029359,40.74094950301556],[-74.00512553452248,40.740850213068576],[-74.00310733884224,40.73999752055912],[-74.00252381416746,40.73975264313974],[-73.99968423039347,40.73855247331364],[-73.99683993860418,40.7373608888958],[-73.993616883955,40.736004491616214],[-73.99171498773394,40.735215300666795],[-73.99119899334941,40.73501236808108],[-73.99075396816649,40.73483915407129],[-73.98990295970059,40.73443478963449],[-73.98987421242556,40.734284556917956],[-73.9898546321718,40.73413347345728],[-73.98984426079987,40.733981862735476],[-73.98984312005862,40.73383004937338],[-73.98985121272044,40.73367835838752],[-73.98986852139565,40.73352711455507],[-73.99003455735858,40.73275415137419],[-73.99010225743841,40.73244537234058],[-73.99011350296763,40.732400503841376],[-73.99021190972442,40.73199633440502],[-73.99039010002672,40.73128852382765],[-73.99050558603597,40.73056495623535],[-73.99072530409872,40.729878687476614],[-73.99078461602444,40.729745748338665],[-73.99097394420761,40.729195707209264],[-73.9911431514612,40.728588157155606],[-73.99122943604792,40.72807261736077],[-73.99129790628726,40.727755248562374],[-73.99123439559044,40.72772680526254],[-73.99135288961898,40.72755739806033],[-73.99138898337311,40.72749770114233],[-73.99155207579066,40.72709433672403],[-73.99156762927875,40.72703464661379],[-73.99163853409182,40.72683325577507],[-73.99179396219469,40.7263917948592]]]]},"properties":{"boro_cd":"102","shape_leng":"29990.7244054","shape_area":"51438397.6546"}},{"type":"Feature","geometry":{"type":"MultiPolygon","coordinates":[[[[-73.96341522820944,40.721581627445474],[-73.96343759552926,40.721559095162505],[-73.96353855414516,40.721573378514535],[-73.9635595835822,40.7215394869658],[-73.96399793658433,40.72093843757014],[-73.96402617458553,40.72088089256612],[-73.96430846237276,40.721055669488344],[-73.9643750430115,40.72099255076879],[-73.96406591310317,40.720799910962775],[-73.96420193098605,40.72065389375459],[-73.9648428486345,40.72146417609479],[-73.96495059736691,40.72142418160451],[-73.96427462497299,40.720575767091496],[-73.96436107956328,40.720477239877326],[-73.96483433609437,40.72079554693836],[-73.96475287190982,40.72087748334004],[-73.96485304145514,40.72095280435702],[-73.96493074300267,40.72088135006352],[-73.96503100064521,40.7207908413711],[-73.9649258175784,40.72072028444744],[-73.96486440861328,40.72077554186064],[-73.96439735661679,40.72044183392412],[-73.96433475398082,40.720386538408626],[-73.96444754853623,40.72027697340342],[-73.964333597368,40.72020831917803],[-73.96438190889278,40.72013942466061],[-73.96447946223127,40.72003618775319],[-73.96503278394155,40.72037706947531],[-73.96559823311401,40.720744458402685],[-73.96567655698857,40.72067896054055],[-73.96511736823715,40.720316338856485],[-73.96517766198338,40.72025364537168],[-73.96523116082322,40.72018747845543],[-73.96527752089179,40.72011826342242],[-73.96531644421442,40.720046445179065],[-73.9653476806216,40.71997248536341],[-73.96537102935636,40.71989685937769],[-73.96538634036419,40.719820053332455],[-73.96540028047502,40.71976095877616],[-73.96540628102625,40.719701093800616],[-73.96540428030637,40.71964107428894],[-73.96539429892002,40.71958151771247],[-73.965376439575,40.719523036778355],[-73.96535088602495,40.71946623312608],[-73.96531790117794,40.719411691138134],[-73.96527782439118,40.719359971928185],[-73.96523106797906,40.71931160756865],[-73.96517811297097,40.71926709561703],[-73.96511950416225,40.71922689399757],[-73.96552429626978,40.71891934200095],[-73.96574267076778,40.718706877274535],[-73.9663636385142,40.71905045604845],[-73.96632227620138,40.71910405237625],[-73.96636643205078,40.7191004916017],[-73.96643687073043,40.719139825344705],[-73.96644906386184,40.719179141582856],[-73.96646644128904,40.71917459142351],[-73.9665015055231,40.719191280435034],[-73.96644323350931,40.71924320365179],[-73.96646509515486,40.71936043440775],[-73.9664456742464,40.71937091257817],[-73.96643690008692,40.71938234640708],[-73.96643313478032,40.71939664104369],[-73.96644063945848,40.71941999228299],[-73.96645879510119,40.71943334041537],[-73.9664913615978,40.71943620891118],[-73.96651453667222,40.719430974242066],[-73.96652886928423,40.71942061369251],[-73.96653591996467,40.71941197906405],[-73.96653866772382,40.71939559908954],[-73.96653476032206,40.71938070716422],[-73.96652341507118,40.71936849300298],[-73.96650737099574,40.719358659872796],[-73.96648075649607,40.71935679107177],[-73.96646745714587,40.71924344022138],[-73.9665137104634,40.719202805475874],[-73.96654863298195,40.71922157595265],[-73.96663600763597,40.71913014271264],[-73.96637512101505,40.71898467027386],[-73.96634580602196,40.719016141341186],[-73.96575996533477,40.71868903477947],[-73.96614194126239,40.718303617709175],[-73.9661983394035,40.718254711749616],[-73.96621630102918,40.718264371929315],[-73.9663133012498,40.71831654090734],[-73.96651263089429,40.718051613288594],[-73.96652746661586,40.7180318976814],[-73.96653666141476,40.71803435964862],[-73.96655195195892,40.71803845157975],[-73.96656241897496,40.71801586680643],[-73.96715101172607,40.71831612593261],[-73.96709096267308,40.71840576680846],[-73.96706867689159,40.71843903579146],[-73.9671824369732,40.718483055799375],[-73.96723013304984,40.71841466834064],[-73.96730741540469,40.71831306668196],[-73.96719282626957,40.71826514402221],[-73.96718343223795,40.718275921027725],[-73.96659690266641,40.71796798088764],[-73.96674727829412,40.71773776595099],[-73.96725113674303,40.71698666660909],[-73.96710504006269,40.716908393254585],[-73.96725983466467,40.71667097505594],[-73.9672403439612,40.71658788605862],[-73.96736391699473,40.716483679055415],[-73.96765448249167,40.71586910872038],[-73.96800830687351,40.715120723303656],[-73.96839125213918,40.71426191817161],[-73.96884924838142,40.713212545457914],[-73.96850672619549,40.713105471387024],[-73.96855971786024,40.712987310170845],[-73.96844232000483,40.71293843489049],[-73.96847298005662,40.712853427709085],[-73.96846973347043,40.712824709346336],[-73.96849847554336,40.71280690373687],[-73.96854388242633,40.71282070094257],[-73.96866605733995,40.712857192989134],[-73.96871698717283,40.712746944774786],[-73.96872243615427,40.71273764582788],[-73.9687319475613,40.71274056991461],[-73.96878386342105,40.71275652620588],[-73.96880693333144,40.71270862041468],[-73.9688244978786,40.71266061713483],[-73.96884020603514,40.712633248484906],[-73.96887248523575,40.71257874343655],[-73.96889595006779,40.71252831427432],[-73.96890597263099,40.712506776530454],[-73.96892466277151,40.712463426935024],[-73.96894079301877,40.712418772448125],[-73.96883817598498,40.71238964192895],[-73.96886537511382,40.71227235912409],[-73.96881612079872,40.71225194770672],[-73.96886591557372,40.71223189865541],[-73.96888473220869,40.71217685873095],[-73.96907978591591,40.711623442476714],[-73.9690958002747,40.711563113603425],[-73.96914483225541,40.71145699454759],[-73.96923352673939,40.711433132286395],[-73.96929101552197,40.71127019931253],[-73.96923492931299,40.71124054143842],[-73.96931038444018,40.711107852378845],[-73.969907730276,40.71126812133626],[-73.96937430020651,40.7110206660632],[-73.96941809247176,40.71093812726212],[-73.96969230826447,40.710846902921844],[-73.9697159352646,40.710836062752634],[-73.96973691711975,40.7108224306582],[-73.96975468989064,40.71080637303601],[-73.96976877589127,40.71078832147547],[-73.969778796528,40.710768761157794],[-73.96978448247484,40.7107482178154],[-73.96978568091191,40.71072724360149],[-73.96978235963249,40.71070640224946],[-73.96977460790818,40.71068625392121],[-73.96963106127464,40.71065694598809],[-73.96966186412786,40.71049972413706],[-73.96994240066073,40.71052267103125],[-73.96995840051589,40.710525689353624],[-73.96997484317981,40.71052657919645],[-73.96999124334839,40.7105253142961],[-73.97000711697184,40.71052193198599],[-73.97002199554144,40.71051653209476],[-73.9700354399177,40.71050927399976],[-73.97004705329154,40.710500371923054],[-73.97005649289616,40.71049008860856],[-73.97006348012376,40.71047872756709],[-73.97006780874848,40.710466624118425],[-73.97006935101302,40.710454135494146],[-73.97006806139926,40.710441630293985],[-73.9700639779715,40.71042947760683],[-73.97005722125282,40.7104180361169],[-73.97004799066768,40.710407643517435],[-73.97003655865588,40.710398606543755],[-73.9700232626314,40.710391191920024],[-73.97000849502372,40.71038561848707],[-73.9699926916954,40.7103820507434],[-73.96968584951003,40.710321731483816],[-73.96960541330377,40.710270843372314],[-73.9696148570143,40.71014774918189],[-73.96994196632629,40.70930205335397],[-73.96988899468916,40.708574872067345],[-73.9698486482356,40.70800304118529],[-73.96962252118868,40.70762758855523],[-73.97031759983989,40.707331762587415],[-73.9723203207378,40.70908288330424],[-73.97278909636387,40.70937792040887],[-73.97426266881374,40.708293382228355],[-73.97502012856033,40.7077358762562],[-73.97547224859575,40.70749241305923],[-73.97841898361351,40.706268335085056],[-73.97851935466426,40.70622413842882],[-73.97861972432429,40.70618798114316],[-73.9787359412847,40.706143787239796],[-73.97888959510641,40.70607620978743],[-73.97896822164267,40.70602083820831],[-73.97905049904129,40.7059669630892],[-73.97918270866988,40.705965214470886],[-73.97921391703927,40.705906639730735],[-73.97927336276864,40.7059171353023],[-73.97927983185282,40.705789481471896],[-73.97932865325976,40.70576543285257],[-73.9795557993371,40.705770214772656],[-73.97955918487244,40.705743615250015],[-73.9802371538147,40.70576328305743],[-73.98022004252597,40.705851075721135],[-73.9807407049497,40.70585515936796],[-73.98090864563804,40.70590794381198],[-73.98092510311987,40.70536925520069],[-73.98232944216603,40.7055520336642],[-73.98230205183879,40.70573697939983],[-73.9810173390096,40.70579750596535],[-73.9810239061828,40.70589891389373],[-73.9824228717989,40.70582205494957],[-73.98245898641562,40.70554241447],[-73.9824595687225,40.70550879672295],[-73.98274859367703,40.70553269123966],[-73.98274508124663,40.70555270986957],[-73.98274161886008,40.70557244103028],[-73.98283552135268,40.70555580739816],[-73.98308986565951,40.705511541826034],[-73.98308639158824,40.7054770907024],[-73.98326398672215,40.705485066158126],[-73.98336819944159,40.7054610645742],[-73.98340650264244,40.70546637066052],[-73.98342627543244,40.705577220847076],[-73.98343806287949,40.70564409484805],[-73.98402149848945,40.70559863456487],[-73.9847433000917,40.7055429072672],[-73.98643429892708,40.70534860741984],[-73.98642911608677,40.70506917942819],[-73.98652972946046,40.70497909917388],[-73.9866227794053,40.70497860945434],[-73.98664041303033,40.70501536439529],[-73.98666530954449,40.70504959937778],[-73.98669686891394,40.705080489285834],[-73.98673433051667,40.705107289623975],[-73.9867767914742,40.70512935446083],[-73.98682322841232,40.70514615199776],[-73.98687252212638,40.70515727738632],[-73.98692348455644,40.70516246248601],[-73.98726969367199,40.705175720191875],[-73.98795676557543,40.705134217412734],[-73.98923975577881,40.705147981039104],[-73.98930731978164,40.70514870535651],[-73.98942993356626,40.70514924757477],[-73.9895830534209,40.705154836166535],[-73.98970166167422,40.70515916702897],[-73.98999422729753,40.70516984806055],[-73.99088177376606,40.705124031585484],[-73.99147964687518,40.7056247526486],[-73.99272220924222,40.70554382833546],[-73.99385266076528,40.704829464929304],[-73.99368792224483,40.704477914211736],[-73.99369336129286,40.70447612883802],[-73.99377457207805,40.70444945740894],[-73.993781554265,40.70446894454396],[-73.99380687248417,40.70453961271173],[-73.99386341031881,40.70455600693061],[-73.99456979016932,40.7043762635141],[-73.99463603474437,40.70433440292618],[-73.99497729707473,40.70460490178875],[-73.99621205120553,40.70558359095002],[-73.99654394039545,40.70584664426538],[-73.99808986428427,40.70707189897288],[-73.99919451174895,40.70794737635167],[-73.99928731116864,40.70801660316896],[-73.99936195582275,40.708072286588504],[-73.99939955073678,40.70810033785776],[-73.99944281440469,40.708136556756756],[-73.9995627336694,40.70823648314776],[-73.9998119392456,40.70844261448089],[-73.99992936423627,40.708536817087506],[-74.00000765589327,40.708599619484],[-74.00012359123079,40.70868451877832],[-74.00019103138897,40.70873391236231],[-74.00026566682726,40.70879294941725],[-74.00055004953066,40.709017917299676],[-74.00134439913731,40.70964629295911],[-74.0014714023208,40.70974655432343],[-74.00141934716292,40.7098147957721],[-74.00128258532506,40.70999405347307],[-74.00123476628733,40.71005533303578],[-74.00113646757461,40.71017596422549],[-74.00100325442945,40.71035402976383],[-74.00090633637271,40.71047783085394],[-74.00079637813212,40.71061828715173],[-74.00065774673965,40.71080077033941],[-74.00050986097234,40.71098426944842],[-74.00057195679267,40.711045954940744],[-74.00062881616601,40.71111049784543],[-74.00068021266488,40.71117764115478],[-74.00072594161287,40.71124711750582],[-74.0007658208999,40.71131865024449],[-74.00079969197269,40.71139195449101],[-74.00082741967458,40.711466738395835],[-74.00084889357232,40.71154270416744],[-74.00086402813447,40.711619549307066],[-74.00087276307242,40.711696967813246],[-74.00089166286932,40.712999257351036],[-74.00089354391561,40.7130299502854],[-74.0008450545922,40.713039620977646],[-74.00063383195948,40.71308117806605],[-74.00062461465946,40.71311189083325],[-74.0002210584419,40.714250626889495],[-74.0004546306596,40.71436504759906],[-74.00052734942693,40.71517005886289],[-74.00078955186169,40.7152909684016],[-74.00057839216119,40.71557090242185],[-74.00013820907833,40.716199730562494],[-73.9999309777797,40.716543914270694],[-73.99944838180335,40.7173297970985],[-73.99931241700145,40.71755024177758],[-73.99858925568033,40.7170995115373],[-73.99776285925766,40.7168139281217],[-73.99698375215492,40.71654054317223],[-73.99605872744375,40.716231640211106],[-73.99580912349244,40.71664465920558],[-73.9954287587875,40.717279243048054],[-73.99480779021309,40.71845742635051],[-73.99439866258628,40.719457108928],[-73.99423470916308,40.71985151456367],[-73.99416805982594,40.72001184625224],[-73.99407263221248,40.72024349090313],[-73.9940415520236,40.72032097982332],[-73.9938379218417,40.720832148621945],[-73.99379593869148,40.72093753696335],[-73.99352731367806,40.7216332613661],[-73.99336181506884,40.72208001783559],[-73.99333917242929,40.72214113966941],[-73.99326016194931,40.72235442627813],[-73.9930919022704,40.722820084364145],[-73.992632549543,40.72405686465],[-73.99260322198438,40.72413644968358],[-73.99257987396696,40.724201554923425],[-73.99232767958787,40.7249060973922],[-73.99221516612971,40.72523259566832],[-73.99206108543514,40.72564461433449],[-73.99179396219469,40.7263917948592],[-73.99163853475245,40.72683325577512],[-73.99156762927875,40.72703464661379],[-73.99155207579066,40.72709433672403],[-73.99138898337311,40.72749770114233],[-73.99135288961898,40.72755739806033],[-73.99123439559044,40.72772680526254],[-73.99129790628726,40.727755248562374],[-73.99122943604792,40.72807261736077],[-73.9911431514612,40.728588157155606],[-73.99097394420761,40.729195707209264],[-73.99078461602444,40.729745748338665],[-73.99072530409872,40.729878687476614],[-73.99050558603597,40.73056495623535],[-73.99039010002672,40.73128852382765],[-73.99021190972442,40.73199633440502],[-73.99011350296763,40.732400503841376],[-73.99010225743841,40.73244537234058],[-73.99003455735858,40.73275415137419],[-73.98986852139565,40.73352711455507],[-73.98985121272044,40.73367835838752],[-73.98984312005862,40.73383004937338],[-73.98984426079987,40.733981862735476],[-73.9898546321718,40.73413347345728],[-73.98987421242556,40.734284556917956],[-73.98990295970059,40.73443478963449],[-73.98883935156158,40.73399047892642],[-73.98877931684083,40.733965399236084],[-73.98757195270184,40.73345699067873],[-73.98718049670539,40.733292147761865],[-73.98494550600007,40.7323496723156],[-73.983560521213,40.73177022443134],[-73.98346644208249,40.73173108061611],[-73.98321467146559,40.73162416829126],[-73.9829644066345,40.7315208425478],[-73.9825562923175,40.73135013405208],[-73.98246876214037,40.73131488423072],[-73.9819091150614,40.73109512831168],[-73.98166657031148,40.73099854707889],[-73.98034007500252,40.73044246087398],[-73.97992109976283,40.73026220520887],[-73.97910803894669,40.7299105584782],[-73.97802697950854,40.72943305910755],[-73.97753843835038,40.72922624791733],[-73.97690436371693,40.728957823775616],[-73.97619632359181,40.728661976526695],[-73.97581244899428,40.7285197671201],[-73.97566782613242,40.728462532006915],[-73.97329796838167,40.72742800835751],[-73.97205015413252,40.7268809462951],[-73.97197685059938,40.72683035620182],[-73.97191244151819,40.726791008767556],[-73.97185671237712,40.72675868546629],[-73.97179601986961,40.72671367965678],[-73.97162697271727,40.726628452997026],[-73.97071049902668,40.726031438747015],[-73.96881206904979,40.724832339156784],[-73.9682901762282,40.7245026836391],[-73.9653251238182,40.72363455174695],[-73.96377702551614,40.72330513184488],[-73.96275665488727,40.72239901512647],[-73.96296566403045,40.722034476620486],[-73.96341522820944,40.721581627445474]]]]},"properties":{"boro_cd":"103","shape_leng":"42767.4375836","shape_area":"68508163.7774"}}], "crs" : { "type": "name", "properties": { "name": "urn:ogc:def:crs:OGC:1.3:CRS84" } } }