{ "type": "FeatureCollection", "features": [{"type":"Feature","geometry":{"type":"MultiPolygon","coordinates":[[[[-73.99600999577936,40.702445154477736],[-73.99602300095273,40.70244581590348],[-73.99602345028656,40.702450929925504],[-73.99601622538555,40.702469285708275],[-73.99597154628987,40.70251436737586],[-73.99594997638938,40.70253759622113],[-73.99593541116886,40.70256439403813],[-73.9959271123892,40.702592944470986],[-73.99592678261608,40.702625830249175],[-73.9959449810984,40.70266652591957],[-73.99595696099746,40.70269675832235],[-73.99595812723082,40.70270443702717],[-73.99595891917079,40.70271841750029],[-73.99594675957302,40.70274390155582],[-73.99592930298468,40.70276118986521],[-73.99591762719751,40.7027694111241],[-73.99589727927741,40.70277719082225],[-73.99588143522112,40.70277918669103],[-73.99586748583184,40.7027770078531],[-73.995854298849,40.7027686830481],[-73.9958376680613,40.70274948984064],[-73.9958329311437,40.70273544528767],[-73.99583478712125,40.70272556313868],[-73.99591793662431,40.702547138713285],[-73.99594236949504,40.70251329294092],[-73.99597328968186,40.70248736198858],[-73.99600279620097,40.702455550636685],[-73.99600999577936,40.702445154477736]]]]},"properties":{"name":"unset","shape_area":"1893.02707906","shape_leng":"284.939990556","feat_code":"2610","status":"Unchanged","sub_code":"261000","source_id":"21261000001.0"}},{"type":"Feature","geometry":{"type":"MultiPolygon","coordinates":[[[[-73.99656751967987,40.701455143411025],[-73.99653145840604,40.701469973761206],[-73.99652574813842,40.70146877320663],[-73.99652465614113,40.701466166191665],[-73.99653078241656,40.70145411122342],[-73.99654987600576,40.70141604986001],[-73.99657834401401,40.701362332471916],[-73.99660315663932,40.70131467091135],[-73.99662999131402,40.701268415103534],[-73.9966549516732,40.701222728358225],[-73.99666210714267,40.70121421512603],[-73.99667983252172,40.70120480618935],[-73.9967085264024,40.70119762092816],[-73.99673473289835,40.70119477245481],[-73.99674513470126,40.70119563994242],[-73.99675708392981,40.70120164759491],[-73.9967629241886,40.70120586125473],[-73.9967670555339,40.701216635996275],[-73.99676257934658,40.7012409289812],[-73.99675142697264,40.70127235383217],[-73.9967407200954,40.7012913210124],[-73.99672959931266,40.701305505561],[-73.99669093859133,40.70134388607562],[-73.99666505997118,40.70136681776549],[-73.99662872385927,40.70138946998497],[-73.99658939414536,40.7014116412309],[-73.99657717907506,40.70142069101312],[-73.99657360296904,40.701427474463024],[-73.99656707520697,40.7014468649917],[-73.99656751967987,40.701455143411025]]]]},"properties":{"name":"unset","shape_area":"2361.14583007","shape_leng":"255.632501094","feat_code":"2610","status":"Unchanged","sub_code":"261000","source_id":"21261000002.0"}},{"type":"Feature","geometry":{"type":"MultiPolygon","coordinates":[[[[-73.99620213901875,40.70201719093069],[-73.9962054504192,40.702005601452335],[-73.99624948012371,40.701926811709846],[-73.99626476613066,40.701913057788715],[-73.99635523915384,40.70183921601438],[-73.99636797591103,40.70183444010202],[-73.99638123997545,40.70183740410436],[-73.99639174331026,40.70184424382179],[-73.99639918235671,40.70186695316312],[-73.99639615360664,40.70188200152218],[-73.9963885787953,40.701897264060435],[-73.99630363531172,40.70198801314828],[-73.99624695281656,40.70202982478089],[-73.99622969154883,40.702029391070575],[-73.99620659357491,40.70202404307228],[-73.99620213901875,40.70201719093069]]]]},"properties":{"name":"unset","shape_area":"1668.62148146","shape_leng":"187.231412173","feat_code":"2610","status":"Unchanged","sub_code":"261000","source_id":"21261000006.0"}},{"type":"Feature","geometry":{"type":"MultiPolygon","coordinates":[[[[-73.99688854598323,40.70128703236307],[-73.99688596113317,40.701250385059275],[-73.99688494555686,40.70120738468595],[-73.99688545761514,40.70116280755729],[-73.99687955032908,40.701149594185445],[-73.99687352334048,40.70114060241001],[-73.99685727251757,40.701120706956836],[-73.99684601636527,40.70109615509088],[-73.99684878229874,40.70108112652255],[-73.99685600416889,40.70106880861691],[-73.99686678025463,40.70106119958466],[-73.99687804367511,40.70105691885686],[-73.9968942541719,40.70105327672448],[-73.99690983259653,40.701054438804235],[-73.996935624418,40.70106197137589],[-73.99694470334127,40.70106292886144],[-73.99729511285159,40.70117502885546],[-73.99732977767037,40.70118738108678],[-73.9974220369992,40.70122042567499],[-73.99750547783546,40.70125088913114],[-73.99752922133754,40.701265862455315],[-73.99753193530613,40.70127618868394],[-73.99752718541916,40.70128599785857],[-73.99751565345036,40.70128909537127],[-73.99749326552772,40.70128496423762],[-73.99746273835858,40.70127412140498],[-73.99739829252442,40.701261728922],[-73.99733927249174,40.701263276453346],[-73.99729510912371,40.70126690898961],[-73.99727011198962,40.70126742169125],[-73.99719735581988,40.701266679721854],[-73.99713916050172,40.70126809389487],[-73.99710087540943,40.701272722468765],[-73.99701721953402,40.701291737342345],[-73.99693599878293,40.70130935822745],[-73.99691436659374,40.70131356754288],[-73.99690674421113,40.70131248582345],[-73.99690033947394,40.701309443721826],[-73.99689359545407,40.70129982157],[-73.99688854598323,40.70128703236307]]]]},"properties":{"name":"EAST RIVER","shape_area":"8634.4997162","shape_leng":"482.569041591","feat_code":"2620","status":"Unchanged","sub_code":"262000","source_id":"21262000003.0"}},{"type":"Feature","geometry":{"type":"MultiPolygon","coordinates":[[[[-73.99653145840604,40.701469973761206],[-73.99656751967987,40.701455143411025],[-73.99656955000408,40.701457478498945],[-73.99657186428979,40.70146014138161],[-73.99658269387179,40.70147259848502],[-73.99659553603612,40.70148737266405],[-73.99659635479232,40.70148831552424],[-73.99660451395948,40.701497700900376],[-73.99661158813412,40.70150631000273],[-73.99661221353541,40.70151682800029],[-73.99660034715792,40.701532701874356],[-73.99658257163703,40.70154888264643],[-73.99653237789526,40.701581609349866],[-73.99649603316891,40.70160748806073],[-73.99646533927962,40.701639337327556],[-73.9964137724039,40.70170228421528],[-73.99636994412245,40.70176065942489],[-73.99635791666344,40.701777606678554],[-73.9963514218344,40.70179884054297],[-73.9963529611062,40.70180130439222],[-73.99635485650478,40.701804339177336],[-73.99635823911726,40.70180975586332],[-73.99636336332074,40.70181796058904],[-73.99636516643496,40.70182084678655],[-73.99636528711584,40.70182104040043],[-73.99638123997545,40.70183740410436],[-73.99636797591103,40.70183444010202],[-73.99635523915384,40.70183921601438],[-73.996340854811,40.70183155310246],[-73.99634023717287,40.70183122439596],[-73.99633754062704,40.701829780789666],[-73.99632713070693,40.70182420809048],[-73.99632004325373,40.70182041490808],[-73.99631806377981,40.70181857149694],[-73.99631672559403,40.70181732424519],[-73.99631084396619,40.701811845342576],[-73.99630751031594,40.70179838888668],[-73.99631556228061,40.701777754815524],[-73.99635976265027,40.70171041144061],[-73.99640315892162,40.70165391018625],[-73.99644221069421,40.70161113078129],[-73.99647214338557,40.70158626496697],[-73.99651423197949,40.70155271497675],[-73.99653440244761,40.701535694109786],[-73.9965376142482,40.701526525194176],[-73.99654109586908,40.7015165539305],[-73.99654020156099,40.70151223414795],[-73.99653952964736,40.70150898327976],[-73.99653560581392,40.701490019281344],[-73.99653298203984,40.701477339094076],[-73.99653216817345,40.701473402031475],[-73.99653145840604,40.701469973761206]]]]},"properties":{"name":"unset","shape_area":"1950.96219811","shape_leng":"349.94174641","feat_code":"2630","status":"Unchanged","sub_code":"263000","source_id":"21263000007.0"}},{"type":"Feature","geometry":{"type":"MultiPolygon","coordinates":[[[[-73.99600999577936,40.702445154477736],[-73.99600668648797,40.70244035643608],[-73.996001803598,40.70243327824376],[-73.99599693372384,40.70242621806198],[-73.99599362680054,40.70242142542305],[-73.99598807254077,40.702402401917674],[-73.99599177749832,40.70237985683309],[-73.99601307306781,40.70233265184294],[-73.9960686252175,40.70224317349609],[-73.99610843791086,40.70218821931359],[-73.99614299064672,40.70215933295748],[-73.99615961729337,40.7021466795211],[-73.99616533293764,40.70213758544264],[-73.99616569509284,40.70213620767157],[-73.99616637324596,40.70213363132978],[-73.9961662407457,40.702133208985344],[-73.99616377529661,40.70212532672303],[-73.99616327483201,40.70212442169194],[-73.99615961895624,40.70211781361414],[-73.996158999026,40.702116163855756],[-73.99615857785213,40.702115041803935],[-73.99615650155971,40.702109509890406],[-73.99615598268112,40.70209962405408],[-73.99615608228842,40.702095913048076],[-73.99616491669754,40.70207126363204],[-73.99617973118119,40.702048013809275],[-73.99620213901875,40.70201719093069],[-73.99620659357491,40.70202404307228],[-73.99622969154883,40.702029391070575],[-73.99624695281656,40.70202982478089],[-73.99619454117335,40.7020825381231],[-73.99618404027304,40.702094880190785],[-73.99618374193717,40.70209760242817],[-73.9961835205529,40.70209962497047],[-73.99618300074208,40.70210595194942],[-73.99618307645379,40.70210624191677],[-73.9961833781179,40.70210738917881],[-73.99618585058082,40.70211679960953],[-73.99618715660944,40.70212176867717],[-73.9961883727301,40.702126401850855],[-73.99618877140018,40.70212791832598],[-73.99618923395212,40.702129677941436],[-73.99618507779631,40.70213956272224],[-73.99616390192107,40.70216617034218],[-73.99615380184997,40.70218328873509],[-73.99609177036304,40.70225233429059],[-73.99605380954111,40.702305175029174],[-73.99603066279693,40.70234251575677],[-73.99600936770062,40.702381970945524],[-73.99600381099002,40.70240381176615],[-73.99600751400142,40.702413676101],[-73.99600948388402,40.702417763592415],[-73.99601336686054,40.70242582150659],[-73.9960171989641,40.702433774059],[-73.99602300095273,40.70244581590348],[-73.99600999577936,40.702445154477736]]]]},"properties":{"name":"unset","shape_area":"1196.74769171","shape_leng":"363.321704304","feat_code":"2630","status":"Unchanged","sub_code":"263000","source_id":"21263000008.0"}}], "crs" : { "type": "name", "properties": { "name": "urn:ogc:def:crs:OGC:1.3:CRS84" } } }